{"type": "FeatureCollection", "name": "Laguna_Barangays", "crs": {"type": "name", "properties": {"name": "urn:ogc:def:crs:OGC:1.3:CRS84"}}, "features": [{"type": "Feature", "properties": {"psgc_code": 403405002, "name": "Banadero", "corr_code": 43405002.0, "geo_level": "Bgy", "city_class": null, "inc_class": null, "urb_rur": null, "pop_2015": "U", "pop_2020": null, "status": null, "adm4_pcode": "PH0403405002", "adm4_en": "Banadero", "adm3_pcode": "PH0403405", "adm2_pcode": "PH04034", "adm1_pcode": "PH04", "adm0_pcode": "PH", "shape_len": 0.0645557538155, "shape_area": 0.000137925107719, "shape_sqkm": 1.64704385559}, "geometry": {"type": "MultiPolygon", "coordinates": [[[[121.17074871800003, 14.226933883000072], [121.17105495700002, 14.226921383000047], [121.17107990600005, 14.226255197000057], [121.17119941200008, 14.22593385700003], [121.17135666800004, 14.225703924000072], [121.17143496100005, 14.22568257100005], [121.171596496, 14.225646351000023], [121.17112349000001, 14.224790853000059], [121.17098599000008, 14.224420200000054], [121.17099794600006, 14.224115308000023], [121.17100027700008, 14.22397317900004], [121.17101020700011, 14.22336763800007], [121.17015412, 14.223351058000048], [121.17006760000004, 14.223136649000025], [121.1694886890001, 14.222979990000056], [121.16908102100001, 14.222764632000064], [121.16933235400006, 14.221963979000066], [121.16986123700008, 14.222096511000075], [121.17017757800011, 14.222057591000066], [121.17074776400011, 14.221997786000031], [121.17131571800007, 14.221758862000058], [121.17157111400002, 14.220869795000056], [121.17214664200003, 14.218528539000033], [121.17218784500005, 14.217577927000036], [121.17179425200004, 14.217600101000073], [121.1713452240001, 14.217550209000024], [121.17099043600001, 14.217467056000032], [121.1706799960001, 14.217311836000022], [121.16985396600012, 14.216908560000036], [121.16896996800006, 14.21660687800005], [121.16794565200007, 14.216417450000051], [121.1670235250001, 14.216307292000067], [121.16650038500006, 14.216164879000075], [121.16562340300004, 14.215912308000043], [121.16543397500004, 14.21585618100005], [121.16514632400003, 14.21585618100005], [121.1648727060001, 14.215905292000059], [121.16456400800007, 14.215919324000026], [121.16442369100002, 14.21585618100005], [121.16436756400003, 14.21575795900003], [121.16429740500007, 14.21561764200004], [121.16418515100008, 14.215575547000071], [121.16403080200007, 14.215596594000033], [121.16387645400005, 14.215554499000064], [121.16358178700011, 14.215470309000068], [121.16336221100005, 14.215518186000054], [121.163052364, 14.215526130000057], [121.16276635100007, 14.215430793000053], [121.16258362100007, 14.21525600800004], [121.16226583000002, 14.21508916700003], [121.16198776200008, 14.215009719000022], [121.16171763900002, 14.215009719000022], [121.16151901900002, 14.214985885000033], [121.16126478600006, 14.215065333000041], [121.1610105530001, 14.215017664000072], [121.16086512000004, 14.215034547000073], [121.16078809800001, 14.21512094600007], [121.16052592000005, 14.215311621000069], [121.16014457000006, 14.215414903000067], [121.15981883400002, 14.215462572000035], [121.15943748400002, 14.215446683000039], [121.15907202400001, 14.21539901400007], [121.15877806600008, 14.215287787000022], [121.15846027500004, 14.215136836000056], [121.15825916200004, 14.215178804000061], [121.15798594700004, 14.214941226000064], [121.1576355200001, 14.214792739000075], [121.15743357800011, 14.214739284000075], [121.15716630300005, 14.214774921000071], [121.15695842200012, 14.21482837600007], [121.15686339100012, 14.214822436000077], [121.15673866200007, 14.214780860000076], [121.15624568800001, 14.214561101000072], [121.15583586500009, 14.214442312000074], [121.15557453000008, 14.214400735000027], [121.1550043420001, 14.214281946000028], [121.1545410650001, 14.214157218000025], [121.15440682200006, 14.214111468000056], [121.15423043800001, 14.214038327000026], [121.15336898300006, 14.215684484000064], [121.15316101600001, 14.216049873000031], [121.15249008600006, 14.21725927600005], [121.15231864900011, 14.217560591000051], [121.15192440800001, 14.218377092000026], [121.15128223300007, 14.219608133000065], [121.15112620000002, 14.219883485000025], [121.151507293, 14.220003191000046], [121.15202454100006, 14.219981639000025], [121.15258489300004, 14.219809223000027], [121.15318834900006, 14.219033351000064], [121.15370559700011, 14.218731623000053], [121.15433060500004, 14.218753175000074], [121.15510647700012, 14.21851610300007], [121.15611942100008, 14.218925591000072], [121.15689529300005, 14.219550599000058], [121.15724012500004, 14.220563543000026], [121.1571754690001, 14.220973031000028], [121.1571754690001, 14.221619591000035], [121.15739098900008, 14.221985975000052], [121.15790823700002, 14.222007527000073], [121.15840393300005, 14.221770455000069], [121.1589211810001, 14.221404071000052], [121.1593953250001, 14.221253207000075], [121.16014964500005, 14.221274759000039], [121.16062378900006, 14.221942871000067], [121.1609039650001, 14.22293426300007], [121.16135655700009, 14.223429959000043], [121.16208932500001, 14.223429959000043], [121.16310226900009, 14.223192887000039], [121.16372727700002, 14.223192887000039], [121.16413676500008, 14.223537719000035], [121.16434519300003, 14.223844230000054], [121.1645031490001, 14.22407651900005], [121.16564540500008, 14.224917047000076], [121.16676610900004, 14.225455847000035], [121.16730291700003, 14.225867019000077], [121.16777905300012, 14.226231719000054], [121.16887820500006, 14.226878279000061], [121.16951131000008, 14.22692697900004], [121.16999890900001, 14.226964487000032], [121.17074871800003, 14.226933883000072]]]]}}, {"type": "Feature", "properties": {"psgc_code": 403405003, "name": "Banlic", "corr_code": 43405003.0, "geo_level": "Bgy", "city_class": null, "inc_class": null, "urb_rur": null, "pop_2015": "U", "pop_2020": null, "status": null, "adm4_pcode": "PH0403405003", "adm4_en": "Banlic", "adm3_pcode": "PH0403405", "adm2_pcode": "PH04034", "adm1_pcode": "PH04", "adm0_pcode": "PH", "shape_len": 0.0736983982267, "shape_area": 0.000252489260613, "shape_sqkm": 3.01501493606}, "geometry": {"type": "MultiPolygon", "coordinates": [[[[121.16707847700002, 14.235236602000043], [121.16715685400004, 14.235228869000025], [121.1673297210001, 14.23523877100007], [121.167574725, 14.23521648700006], [121.16818068600003, 14.235322669000027], [121.16818671700003, 14.235121548000052], [121.1692975630001, 14.233523181000066], [121.16954604400007, 14.23322921600004], [121.169742702, 14.232882682000024], [121.17054369400012, 14.23157776100004], [121.17110068900001, 14.230837805000021], [121.171300513, 14.230647344000033], [121.17082427100001, 14.230405063000035], [121.17016891700007, 14.229832300000055], [121.16941687100007, 14.229644851000046], [121.16958876700005, 14.228915878000066], [121.17012594300002, 14.229020017000039], [121.1702441220001, 14.228603460000045], [121.17050196600007, 14.228603460000045], [121.17057057800002, 14.227937822000058], [121.17074871800003, 14.226933883000072], [121.16999890900001, 14.226964487000032], [121.16951131000008, 14.22692697900004], [121.16887820500006, 14.226878279000061], [121.16777905300012, 14.226231719000054], [121.16730291700003, 14.225867019000077], [121.16676610900004, 14.225455847000035], [121.16564540500008, 14.224917047000076], [121.1645031490001, 14.22407651900005], [121.16434519300003, 14.223844230000054], [121.16413676500008, 14.223537719000035], [121.16372727700002, 14.223192887000039], [121.16310226900009, 14.223192887000039], [121.16208932500001, 14.223429959000043], [121.16135655700009, 14.223429959000043], [121.1609039650001, 14.22293426300007], [121.16062378900006, 14.221942871000067], [121.16014964500005, 14.221274759000039], [121.1593953250001, 14.221253207000075], [121.1589211810001, 14.221404071000052], [121.15840393300005, 14.221770455000069], [121.15790823700002, 14.222007527000073], [121.15739098900008, 14.221985975000052], [121.1571754690001, 14.221619591000035], [121.1571754690001, 14.220973031000028], [121.15724012500004, 14.220563543000026], [121.15689529300005, 14.219550599000058], [121.15611942100008, 14.218925591000072], [121.15510647700012, 14.21851610300007], [121.15433060500004, 14.218753175000074], [121.15370559700011, 14.218731623000053], [121.15318834900006, 14.219033351000064], [121.15258489300004, 14.219809223000027], [121.15202454100006, 14.219981639000025], [121.151507293, 14.220003191000046], [121.15112620000002, 14.219883485000025], [121.15097016700008, 14.22016801600006], [121.14912876300002, 14.223743745000036], [121.14837027600004, 14.225687788000073], [121.14756100200009, 14.227762003000066], [121.14737487000002, 14.227755641000044], [121.14702015400007, 14.227733880000073], [121.14695515000005, 14.227728544000058], [121.14622582700008, 14.227668670000071], [121.14591453100002, 14.227632135000022], [121.14587494800003, 14.227855949000059], [121.14575713900001, 14.228439982000054], [121.14564414300003, 14.228698290000068], [121.14547183700006, 14.229127831000028], [121.14527744600002, 14.229581979000045], [121.1464555980001, 14.230717946000027], [121.14674158000003, 14.230816357000037], [121.14741984600005, 14.23127660800003], [121.14817078300007, 14.231524902000046], [121.14841765400001, 14.231608451000056], [121.14854873000002, 14.231657429000052], [121.14863709100007, 14.231688413000029], [121.14943042000004, 14.231954874000053], [121.1497453290001, 14.232045713000048], [121.14989290300002, 14.23207479000007], [121.15004171900011, 14.232104112000059], [121.1512908850001, 14.232540714000038], [121.15202511600012, 14.232730902000071], [121.15246231200001, 14.232572767000022], [121.1527506760001, 14.232349518000035], [121.15292741400003, 14.232312310000054], [121.15313206000008, 14.232451840000067], [121.15339251700004, 14.232461142000034], [121.15358786000002, 14.23239602800004], [121.15371231000006, 14.232279905000041], [121.15376459900006, 14.232237893000047], [121.15395994200003, 14.232358820000059], [121.15418319100002, 14.232554163000032], [121.1544436480001, 14.232637881000073], [121.15457718900007, 14.23264279500006], [121.15470645200003, 14.232637148000038], [121.15498316700007, 14.232665788000077], [121.15512269800001, 14.232740204000038], [121.15540175900003, 14.232712298000024], [121.15565291500002, 14.232730902000071], [121.15593197600003, 14.232721600000048], [121.15622964200008, 14.232823922000023], [121.15638777600009, 14.232805318000032], [121.1565738170001, 14.23287973500004], [121.15686218100006, 14.233000661000062], [121.15717845100005, 14.233102984000027], [121.15752262600006, 14.233205306000059], [121.15775517800012, 14.233242515000029], [121.15802174300006, 14.233323767000059], [121.15836911300005, 14.233437858000059], [121.15964349300009, 14.233735523000064], [121.16002487700007, 14.233782033000068], [121.16197223600011, 14.234160083000063], [121.1626809920001, 14.234374555000045], [121.1635384010001, 14.234591229000046], [121.16403984700003, 14.234758377000048], [121.16433390400005, 14.234879095000053], [121.16511241800004, 14.235047004000023], [121.16558751600007, 14.235210297000037], [121.1661292010001, 14.235309347000054], [121.16636444700009, 14.235337205000064], [121.16707847700002, 14.235236602000043]]]]}}, {"type": "Feature", "properties": {"psgc_code": 403405006, "name": "Bucal", "corr_code": 43405005.99999999, "geo_level": "Bgy", "city_class": null, "inc_class": null, "urb_rur": null, "pop_2015": "U", "pop_2020": null, "status": null, "adm4_pcode": "PH0403405006", "adm4_en": "Bucal", "adm3_pcode": "PH0403405", "adm2_pcode": "PH04034", "adm1_pcode": "PH04", "adm0_pcode": "PH", "shape_len": 0.0886483264615, "shape_area": 0.000262823597024, "shape_sqkm": 3.13898949389}, "geometry": {"type": "MultiPolygon", "coordinates": [[[[121.17634549700006, 14.193727588000058], [121.17728676600007, 14.193147138000029], [121.17868431000011, 14.193229520000045], [121.1787877490001, 14.193055325000046], [121.17904162600007, 14.192442835000065], [121.1792657530001, 14.191887274000067], [121.17939694000006, 14.191367729000035], [121.17941007800005, 14.191372565000052], [121.17951609300007, 14.191182221000076], [121.18018800200002, 14.190460956000038], [121.18080746100009, 14.189764776000061], [121.18124182600002, 14.189347543000054], [121.18155976100002, 14.188789248000035], [121.18172076000008, 14.188255248000075], [121.18185655100001, 14.187606366000068], [121.18199203600011, 14.186995711000066], [121.18216446800011, 14.18666569100003], [121.18229670100004, 14.186462801000062], [121.18248026200001, 14.186374990000047], [121.18253172400011, 14.186375380000072], [121.18249421700011, 14.18629844800006], [121.18239938400006, 14.186208186000044], [121.18217554500006, 14.186369801000069], [121.18058263800003, 14.18280225500007], [121.17913402200008, 14.181522464000068], [121.17800914700001, 14.182078582000031], [121.1777135960001, 14.181993912000053], [121.17749073100003, 14.181710805000023], [121.17690955100011, 14.180776761000061], [121.17666534000011, 14.175453330000039], [121.17660381300004, 14.173326075000034], [121.17701667600011, 14.171183118000044], [121.17644653100001, 14.170573653000076], [121.17200333500011, 14.171006177000038], [121.1721016360001, 14.176196459000039], [121.17204265600003, 14.178968541000074], [121.1696839220001, 14.180222361000062], [121.1692333950001, 14.180461846000071], [121.16877738500011, 14.182042953000064], [121.16840369700003, 14.182475122000028], [121.16619883300007, 14.184710126000027], [121.16530543700003, 14.18586679200007], [121.16512367900009, 14.185835182000062], [121.16494211000008, 14.185812095000074], [121.16461727600006, 14.185892129000024], [121.16429130800009, 14.186042576000034], [121.16406063600004, 14.186184273000038], [121.16371038600005, 14.186324779000074], [121.16166832400006, 14.187293539000052], [121.1607831980001, 14.187676861000057], [121.16075693500011, 14.18771257900005], [121.16026048600008, 14.188387749000071], [121.16014392200009, 14.188513061000037], [121.16022290300009, 14.188694378000037], [121.16035744100009, 14.18886797700003], [121.16049198000007, 14.189015535000067], [121.16061783900011, 14.18918913400006], [121.16077407800003, 14.18933669300003], [121.16090861700002, 14.189514631000065], [121.16108107200012, 14.189714211000023], [121.16120295200005, 14.189899615000058], [121.16132655400008, 14.190078338000035], [121.16144848600004, 14.190245368000035], [121.1615754290001, 14.190404046000026], [121.1621174180001, 14.191112301000032], [121.16196400800004, 14.191233612000076], [121.1618017830001, 14.19137057000006], [121.16165638500001, 14.191515967000043], [121.16150735300005, 14.191668635000042], [121.16135105, 14.191817667000066], [121.16117657300003, 14.191988509000055], [121.16103481100004, 14.192133907000027], [121.16088941300006, 14.192308384000057], [121.16075128500006, 14.192461051000066], [121.1606382980001, 14.192577483000036], [121.16014138000003, 14.192797937000023], [121.16055324900003, 14.193117950000044], [121.16061251100007, 14.19320091700007], [121.16069844000003, 14.193491299000073], [121.1608169640001, 14.193805386000065], [121.16089400400006, 14.194181698000023], [121.16092659800006, 14.194300221000049], [121.16097697000009, 14.194454302000054], [121.1610095640001, 14.194560973000023], [121.16113401400003, 14.194652828000073], [121.16159137500006, 14.193888117000029], [121.16213396100011, 14.19292815800003], [121.16324961200007, 14.191571719000024], [121.16337748100011, 14.191624797000031], [121.1635680920001, 14.191751871000065], [121.16360700300004, 14.191777812000055], [121.163643965, 14.191802453000037], [121.164374328, 14.19207880700003], [121.1648480770001, 14.19230581200003], [121.16550935200007, 14.19260190500006], [121.16591401300002, 14.192740082000057], [121.166136348, 14.192844620000074], [121.16620290300011, 14.192771571000037], [121.1666095600001, 14.192292518000045], [121.16684506600006, 14.192015088000062], [121.16721086900009, 14.191580983000051], [121.16766697700007, 14.191870024000025], [121.16789929000004, 14.19163689900006], [121.16814383000008, 14.191818658000045], [121.1671085270001, 14.193456467000033], [121.16730542700009, 14.193582162000041], [121.16766096300012, 14.193618492000041], [121.16819393100002, 14.193707320000044], [121.16889468500005, 14.193914585000073], [121.16991127200004, 14.194190939000066], [121.17044424000005, 14.19435872500003], [121.170661375, 14.194516641000064], [121.17140160800011, 14.194556120000072], [121.17181613800005, 14.194585730000028], [121.1746982740001, 14.195139493000056], [121.17634549700006, 14.193727588000058]]]]}}, {"type": "Feature", "properties": {"psgc_code": 403405013, "name": "Halang", "corr_code": 43405013.0, "geo_level": "Bgy", "city_class": null, "inc_class": null, "urb_rur": null, "pop_2015": "U", "pop_2020": null, "status": null, "adm4_pcode": "PH0403405013", "adm4_en": "Halang", "adm3_pcode": "PH0403405", "adm2_pcode": "PH04034", "adm1_pcode": "PH04", "adm0_pcode": "PH", "shape_len": 0.0573346694911, "shape_area": 7.9653875742e-05, "shape_sqkm": 0.951291116115}, "geometry": {"type": "MultiPolygon", "coordinates": [[[[121.17531894700005, 14.198997133000034], [121.17540851100011, 14.198905653000054], [121.177143483, 14.198382854000045], [121.17815068000004, 14.197877754000046], [121.17846347800003, 14.197720888000049], [121.17978109600006, 14.197854650000068], [121.17885360500009, 14.197642551000058], [121.17824101300005, 14.197323535000066], [121.17802373100005, 14.197021815000028], [121.17789626600006, 14.196477867000056], [121.17778996000004, 14.195119617000046], [121.17786775700006, 14.194548655000062], [121.17829783600007, 14.193880352000065], [121.17868431000011, 14.193229520000045], [121.17728676600007, 14.193147138000029], [121.17634549700006, 14.193727588000058], [121.1746982740001, 14.195139493000056], [121.17181613800005, 14.194585730000028], [121.17140160800011, 14.194556120000072], [121.170661375, 14.194516641000064], [121.17044424000005, 14.19435872500003], [121.16991127200004, 14.194190939000066], [121.16889468500005, 14.193914585000073], [121.16819393100002, 14.193707320000044], [121.16766096300012, 14.193618492000041], [121.16730542700009, 14.193582162000041], [121.1671085270001, 14.193456467000033], [121.16814383000008, 14.191818658000045], [121.16789929000004, 14.19163689900006], [121.16766697700007, 14.191870024000025], [121.16721086900009, 14.191580983000051], [121.16684506600006, 14.192015088000062], [121.1666095600001, 14.192292518000045], [121.16620290300011, 14.192771571000037], [121.166136348, 14.192844620000074], [121.16591401300002, 14.192740082000057], [121.16550935200007, 14.19260190500006], [121.1648480770001, 14.19230581200003], [121.164374328, 14.19207880700003], [121.163643965, 14.191802453000037], [121.16360700300004, 14.191777812000055], [121.1635680920001, 14.191751871000065], [121.16337748100011, 14.191624797000031], [121.16324961200007, 14.191571719000024], [121.16213396100011, 14.19292815800003], [121.16159137500006, 14.193888117000029], [121.16113401400003, 14.194652828000073], [121.16078167, 14.195432400000072], [121.16072539700008, 14.195539710000048], [121.15943995700002, 14.197995302000038], [121.15954004500009, 14.198061678000045], [121.15975333300003, 14.198146805000022], [121.15976727500004, 14.198150196000029], [121.16017529200008, 14.198249444000055], [121.160677082, 14.198340679000069], [121.16136698100001, 14.198487488000069], [121.16180221800005, 14.19791017600005], [121.16204926800003, 14.197653518000038], [121.16261091900003, 14.196959596000056], [121.16351893600006, 14.197668984000074], [121.16395875600006, 14.198087522000037], [121.16434951700012, 14.198317329000076], [121.16435890700006, 14.19810136600006], [121.16451853300009, 14.197509812000021], [121.16468334400008, 14.197020547000022], [121.16469267500008, 14.196894568000062], [121.16476083000009, 14.196946256000047], [121.16488824300006, 14.197020334000058], [121.16503639700011, 14.197052927000072], [121.1652052930001, 14.197044038000058], [121.16541270900007, 14.197085521000076], [121.1655845680001, 14.19712996800007], [121.16581568900006, 14.197207008000078], [121.16605273500011, 14.197266270000057], [121.16635497000004, 14.197390719000055], [121.16659794300006, 14.197485538000024], [121.16667650700003, 14.19750653400007], [121.16762591000008, 14.197618963000025], [121.16793821300007, 14.197668931000067], [121.16846288300007, 14.197918774000073], [121.1691999190001, 14.19799372700004], [121.16949890100011, 14.198094899000068], [121.1697555930001, 14.19813556300005], [121.16994112300006, 14.198148270000047], [121.17016647100002, 14.198205102000031], [121.17053329400005, 14.198272804000055], [121.17091134200007, 14.198318522000022], [121.17118137700004, 14.198331259000042], [121.17142351900009, 14.198318522000022], [121.17162105800003, 14.198321093000061], [121.17185995900002, 14.198318551000057], [121.17199211700006, 14.198336342000061], [121.17212307900002, 14.198355999000057], [121.17347222900003, 14.198668302000044], [121.1741015660001, 14.198849726000049], [121.1742061430001, 14.198875016000045], [121.17449041600003, 14.198943761000066], [121.17485885700012, 14.19900559000007], [121.17514866600004, 14.199027631000035], [121.17531894700005, 14.198997133000034]]]]}}, {"type": "Feature", "properties": {"psgc_code": 403405020, "name": "Lecheria", "corr_code": 43405020.0, "geo_level": "Bgy", "city_class": null, "inc_class": null, "urb_rur": null, "pop_2015": "U", "pop_2020": null, "status": null, "adm4_pcode": "PH0403405020", "adm4_en": "Lecheria", "adm3_pcode": "PH0403405", "adm2_pcode": "PH04034", "adm1_pcode": "PH04", "adm0_pcode": "PH", "shape_len": 0.0778954051228, "shape_area": 0.000197291667554, "shape_sqkm": 2.35615346792}, "geometry": {"type": "MultiPolygon", "coordinates": [[[[121.17658558100004, 14.20798508200005], [121.17533552800012, 14.205507407000027], [121.17665552100004, 14.20444046700004], [121.18037162600001, 14.204154749000054], [121.18285051600003, 14.204066455000032], [121.18324638000001, 14.20396075800005], [121.18330351700001, 14.204176621000045], [121.1838935080001, 14.204161647000035], [121.18389469800002, 14.204080837000049], [121.18390366300002, 14.204081047000045], [121.1839303060001, 14.203763670000058], [121.18389939100007, 14.203104752000058], [121.18395193100002, 14.202564087000042], [121.18411344100002, 14.201965440000038], [121.18418000500003, 14.201177876000031], [121.18431582800008, 14.200020326000072], [121.18446507200008, 14.199447462000023], [121.1844108790001, 14.198985970000024], [121.18432857900007, 14.198420760000033], [121.18440858400004, 14.198063795000053], [121.18470144800006, 14.197623756000041], [121.18480074100012, 14.197266937000052], [121.18471694100003, 14.196889910000039], [121.18456480200007, 14.196615874000031], [121.18443964700009, 14.196586694000075], [121.1843621910001, 14.196623745000068], [121.18438050600002, 14.196746211000061], [121.18443694700011, 14.196925427000053], [121.1845117800001, 14.197217697000042], [121.18449039100005, 14.197481009000057], [121.18419865500005, 14.197779909000076], [121.18396034900002, 14.197926824000035], [121.18389731000002, 14.197954629000037], [121.18367455900011, 14.197973621000074], [121.18335674700006, 14.197950527000046], [121.18283829400002, 14.197832839000057], [121.18228804300009, 14.197714908000023], [121.18198066500008, 14.197712574000036], [121.18174641000007, 14.19784523100003], [121.18160738400002, 14.19799929100003], [121.18148002800001, 14.198019005000049], [121.18130000500003, 14.197996955000065], [121.18097233900005, 14.197880712000028], [121.18076681200012, 14.197801793000053], [121.18040464800004, 14.197825815000044], [121.17978109600006, 14.197854650000068], [121.17846347800003, 14.197720888000049], [121.17815068000004, 14.197877754000046], [121.177143483, 14.198382854000045], [121.17540851100011, 14.198905653000054], [121.17531894700005, 14.198997133000034], [121.17514866600004, 14.199027631000035], [121.17485885700012, 14.19900559000007], [121.17449041600003, 14.198943761000066], [121.1742061430001, 14.198875016000045], [121.1741015660001, 14.198849726000049], [121.17347222900003, 14.198668302000044], [121.17212307900002, 14.198355999000057], [121.17199211700006, 14.198336342000061], [121.17185995900002, 14.198318551000057], [121.17162105800003, 14.198321093000061], [121.17142351900009, 14.198318522000022], [121.17118137700004, 14.198331259000042], [121.17091134200007, 14.198318522000022], [121.17053329400005, 14.198272804000055], [121.17016647100002, 14.198205102000031], [121.16994112300006, 14.198148270000047], [121.1697555930001, 14.19813556300005], [121.16949890100011, 14.198094899000068], [121.1691999190001, 14.19799372700004], [121.16846288300007, 14.197918774000073], [121.16793821300007, 14.197668931000067], [121.16762591000008, 14.197618963000025], [121.16667650700003, 14.19750653400007], [121.16659794300006, 14.197485538000024], [121.16635497000004, 14.197390719000055], [121.16605273500011, 14.197266270000057], [121.16581568900006, 14.197207008000078], [121.1655845680001, 14.19712996800007], [121.16541270900007, 14.197085521000076], [121.1652052930001, 14.197044038000058], [121.16503639700011, 14.197052927000072], [121.16488824300006, 14.197020334000058], [121.16476083000009, 14.196946256000047], [121.16469267500008, 14.196894568000062], [121.16468334400008, 14.197020547000022], [121.16451853300009, 14.197509812000021], [121.16435890700006, 14.19810136600006], [121.16434951700012, 14.198317329000076], [121.16395875600006, 14.198087522000037], [121.16351893600006, 14.197668984000074], [121.16261091900003, 14.196959596000056], [121.16204926800003, 14.197653518000038], [121.16180221800005, 14.19791017600005], [121.16136698100001, 14.198487488000069], [121.160677082, 14.198340679000069], [121.16017529200008, 14.198249444000055], [121.15976727500004, 14.198150196000029], [121.15975333300003, 14.198146805000022], [121.15954004500009, 14.198061678000045], [121.15943995700002, 14.197995302000038], [121.15787221000005, 14.200272436000034], [121.15831203000005, 14.200534910000044], [121.15863125500005, 14.200804477000077], [121.15896466700008, 14.201187546000028], [121.15912077000007, 14.201440255000023], [121.1593332430001, 14.201725417000034], [121.15954012500004, 14.202251009000065], [121.15964077100011, 14.203184773000032], [121.15964077100011, 14.203430795000031], [121.15956249100009, 14.203704773000027], [121.159433809, 14.204136469000048], [121.15982333500006, 14.204211392000047], [121.16030544900002, 14.20434225200006], [121.16081511300001, 14.204548872000032], [121.16103689200008, 14.204665630000022], [121.16100844900006, 14.205035387000066], [121.16083779200005, 14.205509433000032], [121.16233113800001, 14.20645068500005], [121.16316467600006, 14.20681105600005], [121.163357904, 14.206414430000052], [121.16346229900012, 14.206406240000035], [121.1651419530001, 14.207071642000074], [121.16523087900009, 14.206852078000054], [121.16552825800011, 14.20570716800006], [121.16569163100007, 14.205761703000064], [121.1671021620001, 14.206236201000024], [121.16738634500007, 14.206352018000075], [121.16766056800009, 14.206446920000076], [121.16795427600005, 14.20657419400004], [121.1681337650001, 14.206636199000059], [121.16824446500004, 14.206354644000044], [121.16920717500011, 14.206632761000037], [121.16938217900008, 14.206695393000075], [121.17021934800005, 14.20698782900007], [121.17034124100007, 14.206721347000041], [121.17251826400002, 14.207432862000076], [121.17292181000005, 14.207719592000046], [121.17347403100007, 14.208112518000064], [121.17415368700006, 14.208186855000065], [121.17434540900001, 14.208201603000077], [121.17442979700002, 14.208208095000032], [121.17500325700007, 14.20852668300006], [121.17574663100004, 14.208696597000028], [121.17658558100004, 14.20798508200005]]]]}}, {"type": "Feature", "properties": {"psgc_code": 403405021, "name": "Lingga", "corr_code": 43405021.0, "geo_level": "Bgy", "city_class": null, "inc_class": null, "urb_rur": null, "pop_2015": "U", "pop_2020": null, "status": null, "adm4_pcode": "PH0403405021", "adm4_en": "Lingga", "adm3_pcode": "PH0403405", "adm2_pcode": "PH04034", "adm1_pcode": "PH04", "adm0_pcode": "PH", "shape_len": 0.0399529287334, "shape_area": 8.1199882125e-05, "shape_sqkm": 0.969696777178}, "geometry": {"type": "MultiPolygon", "coordinates": [[[[121.18012107100003, 14.216733543000032], [121.1802988290001, 14.216684780000037], [121.18067547200008, 14.216603590000034], [121.18094581200012, 14.21655319000007], [121.18224981900005, 14.216277440000056], [121.18239154500009, 14.21615421000007], [121.18250834100002, 14.215967335000073], [121.182552482, 14.215896710000038], [121.18260383100005, 14.215774372000055], [121.18268659600005, 14.215499732000069], [121.18275991700011, 14.214969154000073], [121.18287388800002, 14.215005873000052], [121.18301442300003, 14.214953023000078], [121.183274589, 14.214855184000044], [121.18351428500011, 14.214746784000056], [121.18424319000007, 14.214417143000048], [121.18454778700004, 14.214296219000062], [121.18504464500006, 14.214072633000058], [121.18519126600006, 14.214000114000044], [121.18557355000007, 14.213811036000038], [121.18597242700002, 14.213615109000045], [121.1864782780001, 14.21339722600004], [121.18589849000011, 14.21297803400006], [121.18531476100009, 14.212483921000057], [121.18497521400002, 14.212075264000077], [121.1847732870001, 14.21129740200007], [121.1843721030001, 14.20940728200003], [121.1842573020001, 14.208450928000047], [121.18412883200006, 14.20767362500004], [121.18400583700009, 14.206854561000057], [121.18391779300009, 14.206104795000044], [121.18387773500001, 14.205233091000025], [121.1838935080001, 14.204161647000035], [121.18330351700001, 14.204176621000045], [121.18324638000001, 14.20396075800005], [121.18285051600003, 14.204066455000032], [121.18037162600001, 14.204154749000054], [121.17665552100004, 14.20444046700004], [121.17533552800012, 14.205507407000027], [121.17658558100004, 14.20798508200005], [121.17934593600012, 14.213579823000032], [121.17933440000002, 14.213829980000071], [121.17932162600005, 14.214106985000058], [121.17921231800005, 14.216477348000069], [121.17920224700003, 14.216695745000038], [121.1796079820001, 14.216871198000035], [121.18012107100003, 14.216733543000032]]]]}}, {"type": "Feature", "properties": {"psgc_code": 403405036, "name": "Pansol", "corr_code": 43405036.0, "geo_level": "Bgy", "city_class": null, "inc_class": null, "urb_rur": null, "pop_2015": "U", "pop_2020": null, "status": null, "adm4_pcode": "PH0403405036", "adm4_en": "Pansol", "adm3_pcode": "PH0403405", "adm2_pcode": "PH04034", "adm1_pcode": "PH04", "adm0_pcode": "PH", "shape_len": 0.069877670769, "shape_area": 0.000268759971234, "shape_sqkm": 3.21000587576}, "geometry": {"type": "MultiPolygon", "coordinates": [[[[121.1894421290001, 14.188201209000056], [121.18971179000005, 14.18785602500003], [121.18973081800004, 14.187854677000075], [121.19009163100009, 14.187427324000055], [121.1903091150001, 14.187045383000054], [121.19055033200004, 14.18667524500006], [121.19112733200006, 14.186028671000031], [121.19167911900001, 14.185556263000024], [121.19213541500005, 14.185106379000047], [121.19277557300006, 14.18445679100006], [121.19340278600009, 14.183785292000039], [121.19356495500006, 14.183618938000052], [121.19364693600005, 14.183564760000024], [121.19365843100002, 14.183559737000053], [121.19436013300003, 14.183052125000074], [121.19468083900006, 14.182853532000024], [121.1941783530001, 14.182087644000035], [121.19412233100002, 14.181860535000055], [121.19423780400007, 14.18181988200007], [121.19414175600002, 14.18166896100007], [121.19398166700012, 14.181438134000075], [121.19397251700002, 14.181429255000069], [121.19379866200006, 14.181273862000069], [121.19375755200008, 14.181096340000067], [121.19382624200011, 14.181025369000054], [121.19394981700009, 14.181038737000051], [121.19386752600008, 14.180834571000048], [121.19382426700008, 14.180524520000063], [121.19359843100005, 14.179954530000032], [121.19347258700009, 14.17920364400004], [121.19334621300004, 14.178114601000061], [121.19336761000011, 14.176883511000028], [121.19341470100005, 14.175504428000067], [121.19342029000006, 14.175340738000045], [121.1933751360001, 14.174994555000069], [121.1932471990001, 14.174828989000048], [121.19301390100009, 14.174347343000022], [121.19271287300012, 14.173745285000052], [121.1924795750001, 14.17355714200005], [121.19192264700007, 14.173296625000035], [121.1917227140001, 14.172849006000035], [121.19163520400002, 14.172455209000077], [121.19155644400007, 14.17194764800007], [121.1914951870001, 14.171072542000047], [121.19099051300009, 14.170321713000021], [121.19023354900003, 14.16897864300006], [121.18869762400004, 14.168906314000026], [121.18749261900007, 14.165983502000074], [121.18442793100007, 14.167508960000077], [121.1805463930001, 14.168285267000044], [121.17772444200011, 14.171969524000076], [121.17701667600011, 14.171183118000044], [121.17660381300004, 14.173326075000034], [121.17666534000011, 14.175453330000039], [121.17690955100011, 14.180776761000061], [121.17749073100003, 14.181710805000023], [121.1777135960001, 14.181993912000053], [121.17800914700001, 14.182078582000031], [121.17913402200008, 14.181522464000068], [121.18058263800003, 14.18280225500007], [121.18217554500006, 14.186369801000069], [121.18239938400006, 14.186208186000044], [121.18249421700011, 14.18629844800006], [121.18253172400011, 14.186375380000072], [121.18274147700004, 14.186376972000062], [121.18300259000011, 14.186391696000044], [121.18335340200008, 14.186623738000037], [121.18353604900005, 14.186650611000061], [121.18383492400005, 14.186844028000053], [121.18408236800008, 14.186935109000046], [121.18429134000007, 14.186936693000064], [121.1846053060001, 14.18687535600003], [121.18501039300008, 14.186852938000072], [121.18532385200001, 14.18685531400007], [121.18563741100002, 14.186844946000065], [121.1858865800001, 14.186719399000026], [121.18601820200001, 14.186592962000077], [121.18600656700005, 14.18648303200007], [121.18602379700008, 14.186389861000066], [121.18597557400005, 14.186078580000071], [121.185902811, 14.185847547000037], [121.18599235800002, 14.185795152000026], [121.18604731300002, 14.185734246000038], [121.18627496900001, 14.185656859000062], [121.18665025200005, 14.185776496000074], [121.18696535000004, 14.18593738900006], [121.18751077600007, 14.186166766000042], [121.18814130900012, 14.18644684000003], [121.18838999600007, 14.186587307000025], [121.188390174, 14.186591468000074], [121.18862596500003, 14.186779718000025], [121.1887749550001, 14.187071282000034], [121.18878147900011, 14.187453926000046], [121.18871643300008, 14.188067859000057], [121.18885689900003, 14.18838276300005], [121.18901084900006, 14.18850016500005], [121.18922529000008, 14.188501786000074], [121.1894421290001, 14.188201209000056]]]]}}, {"type": "Feature", "properties": {"psgc_code": 403405037, "name": "Parian", "corr_code": 43405037.00000001, "geo_level": "Bgy", "city_class": null, "inc_class": null, "urb_rur": null, "pop_2015": "U", "pop_2020": null, "status": null, "adm4_pcode": "PH0403405037", "adm4_en": "Parian", "adm3_pcode": "PH0403405", "adm2_pcode": "PH04034", "adm1_pcode": "PH04", "adm0_pcode": "PH", "shape_len": 0.0730014618632, "shape_area": 0.000153468209952, "shape_sqkm": 1.83269908843}, "geometry": {"type": "MultiPolygon", "coordinates": [[[[121.14661535300002, 14.221299224000063], [121.14704438800004, 14.220597166000061], [121.147122394, 14.22005112100004], [121.14700538500006, 14.219602584000029], [121.14653734600006, 14.219563580000056], [121.14637949400003, 14.21929865900006], [121.14636183200003, 14.218959030000065], [121.14665435600011, 14.218081458000029], [121.14720040100008, 14.217632921000074], [121.14768794100007, 14.217379400000027], [121.14815598000007, 14.217242888000044], [121.14881903500009, 14.216872358000046], [121.1492675720001, 14.217047872000023], [121.149292478, 14.217273897000041], [121.14929046000009, 14.217439501000058], [121.14933515300004, 14.217597521000073], [121.1493951970001, 14.217869543000063], [121.14935209300006, 14.218666967000047], [121.14937364500008, 14.219313527000054], [121.14967537300004, 14.219744567000077], [121.15058055700001, 14.21996008700006], [121.15079391600011, 14.219930134000037], [121.15112620000002, 14.219883485000025], [121.15128223300007, 14.219608133000065], [121.15192440800001, 14.218377092000026], [121.15231864900011, 14.217560591000051], [121.15249008600006, 14.21725927600005], [121.15316101600001, 14.216049873000031], [121.15336898300006, 14.215684484000064], [121.15423043800001, 14.214038327000026], [121.15440682200006, 14.214111468000056], [121.1545410650001, 14.214157218000025], [121.1550043420001, 14.214281946000028], [121.15557453000008, 14.214400735000027], [121.15583586500009, 14.214442312000074], [121.15624568800001, 14.214561101000072], [121.15673866200007, 14.214780860000076], [121.15686339100012, 14.214822436000077], [121.15695842200012, 14.21482837600007], [121.15716630300005, 14.214774921000071], [121.15743357800011, 14.214739284000075], [121.1576355200001, 14.214792739000075], [121.15798594700004, 14.214941226000064], [121.15825916200004, 14.215178804000061], [121.15846027500004, 14.215136836000056], [121.15825371000005, 14.214906437000025], [121.15813453800001, 14.214636314000074], [121.15805509000006, 14.214390025000057], [121.15807892500004, 14.213992786000063], [121.15812659300002, 14.213571712000032], [121.15825371000005, 14.213118859000076], [121.15833315800012, 14.212745454000071], [121.15842849500007, 14.212499165000054], [121.15857944700008, 14.21210192500007], [121.15865889400004, 14.21176824400004], [121.15866263600003, 14.210855152000022], [121.15862682000011, 14.21065825900007], [121.15860669500012, 14.210547621000046], [121.15849916600007, 14.210276718000046], [121.1583734190001, 14.210094386000037], [121.15821623600004, 14.209855468000057], [121.1581030640001, 14.209591400000022], [121.158021329, 14.209277034000024], [121.15775097400001, 14.209119851000025], [121.15760007800009, 14.209019253000065], [121.15729828600001, 14.208924943000056], [121.15692803600007, 14.20892268800003], [121.15679542900011, 14.20890021200006], [121.15645904200005, 14.208843198000068], [121.15586286400003, 14.208676268000033], [121.15570388300011, 14.208501388000059], [121.15544156400006, 14.208429847000048], [121.15515539800003, 14.208461643000021], [121.15467050600012, 14.208429847000048], [121.15451947500003, 14.20838215300006], [121.15434459500011, 14.208278815000028], [121.15420778200007, 14.208218617000057], [121.1541458690001, 14.208191376000059], [121.15395509200005, 14.208199325000066], [121.15379611100002, 14.208270866000078], [121.15359738500001, 14.208278815000028], [121.153271474, 14.208223172000032], [121.15289786900007, 14.208302662000051], [121.15264349900008, 14.208350357000029], [121.15199059200006, 14.208384402000036], [121.15126651000003, 14.208856264000076], [121.1511634200001, 14.20892344400005], [121.15105078700003, 14.20909507600004], [121.15091670000004, 14.209073622000062], [121.15072361400007, 14.209062895000045], [121.1505305290001, 14.209078985000076], [121.1498341890001, 14.209430045000033], [121.15027785200004, 14.210202897000045], [121.15023364700005, 14.210510184000043], [121.15016740100009, 14.210970692000046], [121.1481095150001, 14.209563728000035], [121.1483160470001, 14.211002571000051], [121.14601665200007, 14.209673879000036], [121.14511795300007, 14.209171453000067], [121.14454106900007, 14.208854102000032], [121.14366435900001, 14.210353861000044], [121.14347130700003, 14.21026439700006], [121.14324058600005, 14.21026439700006], [121.14277715100002, 14.210300434000033], [121.14247449800007, 14.210113077000074], [121.14174668800001, 14.210127489000058], [121.14085659800003, 14.210187390000044], [121.14013262200001, 14.210510127000077], [121.13885039800005, 14.211059651000028], [121.13894634700011, 14.211295161000066], [121.13906846400005, 14.211556839000025], [121.13923178100003, 14.211792084000024], [121.1393326650001, 14.212051501000076], [121.13944075600011, 14.21233974200004], [121.13874952600008, 14.213139354000077], [121.13857108800005, 14.213231878000045], [121.13837282400004, 14.213218660000052], [121.13814812500004, 14.213165789000072], [121.13795646900007, 14.213284748000035], [121.13789038100003, 14.213443359000053], [121.13799612200012, 14.213648232000025], [121.1381613420001, 14.213753973000053], [121.13899405200004, 14.213886150000064], [121.13911301100006, 14.213919194000027], [121.139126228, 14.214077805000045], [121.13911301100006, 14.21427606900005], [121.13906674900011, 14.214520595000067], [121.13908657500008, 14.214659380000057], [121.13925840400009, 14.214751903000035], [121.13939058100004, 14.214699033000045], [121.13952936600003, 14.21450076900004], [121.13959545400007, 14.214262852000047], [121.13977389200011, 14.214176937000047], [121.14017042000012, 14.214249634000055], [121.14057355700004, 14.214342157000033], [121.14079825700003, 14.214507378000064], [121.1409568680001, 14.21467259800005], [121.14111548000005, 14.21498321200005], [121.14110297400009, 14.215477183000075], [121.14110226200012, 14.215505308000047], [121.14110226200012, 14.215908445000025], [121.14113530600002, 14.216073665000067], [121.14130713500003, 14.21625871200007], [121.14151861700009, 14.216529673000025], [121.14165079300005, 14.216926202000025], [121.14186888400002, 14.217540821000057], [121.14202395900008, 14.218006659000025], [121.14204732200005, 14.218109178000077], [121.14208697400011, 14.21834709500007], [121.14211341000009, 14.218558577000067], [121.14206714800002, 14.218889018000027], [121.14198123400001, 14.21924589300005], [121.14176314300005, 14.219615987000054], [121.14156443400009, 14.219817101000046], [121.14226649300008, 14.220012118000056], [121.14347559300006, 14.22040215000004], [121.14454818100012, 14.221045703000073], [121.14515273100005, 14.22116271300007], [121.14597179900011, 14.22141623400006], [121.14661535300002, 14.221299224000063]]]]}}, {"type": "Feature", "properties": {"psgc_code": 403405044, "name": "Barangay 7", "corr_code": 43405044.0, "geo_level": "Bgy", "city_class": null, "inc_class": null, "urb_rur": null, "pop_2015": "R", "pop_2020": null, "status": null, "adm4_pcode": "PH0403405044", "adm4_en": "Barangay 7 (Pob.)", "adm3_pcode": "PH0403405", "adm2_pcode": "PH04034", "adm1_pcode": "PH04", "adm0_pcode": "PH", "shape_len": 0.0280378269619, "shape_area": 2.3247620994e-05, "shape_sqkm": 0.277624957917}, "geometry": {"type": "MultiPolygon", "coordinates": [[[[121.16984123800012, 14.213652033000074], [121.17000192800003, 14.213274411000043], [121.17013351800006, 14.21297833400007], [121.17026510700009, 14.212616462000028], [121.17047489900006, 14.21221521700005], [121.17018194700006, 14.212137356000028], [121.17043927800012, 14.211579805000042], [121.17062797100004, 14.211170970000069], [121.17047929600005, 14.211075394000034], [121.17065983000009, 14.210491314000024], [121.17145630200002, 14.210778044000051], [121.17171117300006, 14.210332020000067], [121.1720403810001, 14.209970952000049], [121.17223153400005, 14.209779799000046], [121.17266693900001, 14.20950368900003], [121.17335721500001, 14.209822278000047], [121.1737926190001, 14.21019396500003], [121.1745572320001, 14.211043535000044], [121.17538556300008, 14.20939749300004], [121.17574663100004, 14.208696597000028], [121.17500325700007, 14.20852668300006], [121.17442979700002, 14.208208095000032], [121.17434540900001, 14.208201603000077], [121.17415368700006, 14.208186855000065], [121.17347403100007, 14.208112518000064], [121.17292181000005, 14.207719592000046], [121.17251826400002, 14.207432862000076], [121.17034124100007, 14.206721347000041], [121.17021934800005, 14.20698782900007], [121.16949945800002, 14.209007211000028], [121.16910121100011, 14.210124345000054], [121.16886634900004, 14.210046059000035], [121.16871618500011, 14.210504350000065], [121.16851591000011, 14.210450766000065], [121.16819089700004, 14.211322410000037], [121.16813782800011, 14.211471639000024], [121.16804416700006, 14.211724537000066], [121.16753287800009, 14.211557695000067], [121.16726980800001, 14.212195713000028], [121.16726980800001, 14.212355591000062], [121.16738527500002, 14.212488823000058], [121.16750246000004, 14.212532906000035], [121.16736751100007, 14.212906283000052], [121.16868603000012, 14.213395035000076], [121.16978261200006, 14.213789804000044], [121.16984123800012, 14.213652033000074]]]]}}, {"type": "Feature", "properties": {"psgc_code": 403405049, "name": "Real", "corr_code": 43405049.0, "geo_level": "Bgy", "city_class": null, "inc_class": null, "urb_rur": null, "pop_2015": "U", "pop_2020": null, "status": null, "adm4_pcode": "PH0403405049", "adm4_en": "Real", "adm3_pcode": "PH0403405", "adm2_pcode": "PH04034", "adm1_pcode": "PH04", "adm0_pcode": "PH", "shape_len": 0.0715612647876, "shape_area": 0.000159942923686, "shape_sqkm": 1.91015203844}, "geometry": {"type": "MultiPolygon", "coordinates": [[[[121.15264349900008, 14.208350357000029], [121.15289786900007, 14.208302662000051], [121.153271474, 14.208223172000032], [121.15359738500001, 14.208278815000028], [121.15379611100002, 14.208270866000078], [121.15395509200005, 14.208199325000066], [121.1541458690001, 14.208191376000059], [121.15420778200007, 14.208218617000057], [121.15434459500011, 14.208278815000028], [121.1544002390001, 14.207968802000039], [121.15442047300007, 14.207811465000077], [121.15452418600012, 14.207295814000076], [121.1545515250001, 14.207148263000022], [121.15457511800003, 14.206999018000033], [121.15461994500004, 14.206308299000057], [121.1546319150001, 14.206032992000075], [121.15464987000007, 14.20561404700004], [121.15467845500007, 14.204916368000056], [121.15472481200004, 14.204848961000039], [121.15490247100001, 14.204590633000066], [121.15596682300009, 14.203042996000022], [121.15754989200002, 14.200741108000045], [121.15787221000005, 14.200272436000034], [121.15943995700002, 14.197995302000038], [121.16072539700008, 14.195539710000048], [121.16078167, 14.195432400000072], [121.16113401400003, 14.194652828000073], [121.1610095640001, 14.194560973000023], [121.16097697000009, 14.194454302000054], [121.16092659800006, 14.194300221000049], [121.16089400400006, 14.194181698000023], [121.1608169640001, 14.193805386000065], [121.16069844000003, 14.193491299000073], [121.16061251100007, 14.19320091700007], [121.16055324900003, 14.193117950000044], [121.16014138000003, 14.192797937000023], [121.15994285300008, 14.192679414000054], [121.15984507200005, 14.192546075000052], [121.15976210500003, 14.19244829300004], [121.15964358200006, 14.19232680600004], [121.15953098500006, 14.192273471000021], [121.15931467900009, 14.192371253000033], [121.15924949200007, 14.192421625000065], [121.15921986100011, 14.19243644100004], [121.15910133700004, 14.192578669000056], [121.15896503500005, 14.192726823000044], [121.1588079920001, 14.192780158000062], [121.15864502200009, 14.192780158000062], [121.15847020000001, 14.192774232000033], [121.15823315300008, 14.192720897000072], [121.1581057410001, 14.19274163800003], [121.15797832800001, 14.192827568000041], [121.15790128800006, 14.192949054000053], [121.1578390630001, 14.193052762000036], [121.15773239200007, 14.19310906100003], [121.15750127100011, 14.193052762000036], [121.15726718700012, 14.192937202000053], [121.15704791900009, 14.192886829000031], [121.15693235900005, 14.192916460000049], [121.1568790230001, 14.192954980000025], [121.15678716800005, 14.19304979900005], [121.15670716400007, 14.193156470000076], [121.156613278, 14.19317733400004], [121.15660049300004, 14.193180175000066], [121.15648789600004, 14.193147581000062], [121.15632492600002, 14.193103135000058], [121.15609973200003, 14.193126839000058], [121.15592491000007, 14.193266104000031], [121.15582416500001, 14.19350018800003], [121.15576194000005, 14.193565376000038], [121.15567601100008, 14.193597970000042], [121.15555452400008, 14.193606859000056], [121.155412296, 14.193553524000038], [121.15518710200001, 14.19348833600003], [121.15493227600007, 14.193485373000044], [121.15476041700003, 14.193319440000039], [121.15467745100011, 14.19323647400006], [121.15455596400011, 14.193274994000035], [121.15451744400002, 14.193432037000036], [121.1545470750001, 14.19365130600005], [121.15458559500007, 14.19406613700005], [121.15457078000009, 14.194371335000028], [121.15445225600001, 14.19460838200007], [121.15432484400003, 14.194798020000064], [121.15407298100001, 14.194952100000023], [121.15389815900005, 14.195058771000049], [121.15335385900005, 14.195337934000065], [121.15307381600007, 14.195455847000062], [121.1527741210001, 14.195544282000071], [121.15241547000005, 14.19554919500007], [121.15200768800003, 14.195544282000071], [121.1516195580001, 14.195455847000062], [121.15121177600008, 14.195298630000025], [121.15090716800012, 14.195205283000064], [121.15041095200002, 14.195038239000041], [121.15008177900006, 14.194890848000057], [121.149492215, 14.194615719000069], [121.14915321500007, 14.194522371000062], [121.14876999900002, 14.194487980000076], [121.14856856400002, 14.194355328000029], [121.14835239100012, 14.194075285000054], [121.14814113000011, 14.193967198000053], [121.14798882600007, 14.194026154000028], [121.14785126100003, 14.193952459000059], [121.1477186090001, 14.19386402400005], [121.14737469700003, 14.193809981000072], [121.14698165400011, 14.193795242000022], [121.14658369900008, 14.193696981000073], [121.14639700300006, 14.19350537300005], [121.14628684400009, 14.193360618000042], [121.14619832900007, 14.193200230000059], [121.1460268190001, 14.193164919000026], [121.1459007090001, 14.193043853000063], [121.14576451000005, 14.192736144000037], [121.14605487600011, 14.191905950000034], [121.14631372500003, 14.190467898000065], [121.14568098300003, 14.189461262000066], [121.14481815200008, 14.18862719200007], [121.14252101600005, 14.191154123000047], [121.14222356100004, 14.19148133300007], [121.14210389800007, 14.191691831000071], [121.14131711800007, 14.193075856000064], [121.14126540200004, 14.193342491000067], [121.14065010900003, 14.194345471000076], [121.1403715140001, 14.194759599000065], [121.140205863, 14.195030665000047], [121.14101355000003, 14.195411401000058], [121.14146034800001, 14.195740621000027], [121.14168374700012, 14.196387301000073], [121.14180132500007, 14.196892888000036], [121.14193066100006, 14.197198592000063], [121.14217757600011, 14.197222108000062], [121.14250679500003, 14.19756308500007], [121.14254206900011, 14.197951094000075], [121.14287128800004, 14.198174492000021], [121.14330632800011, 14.198280313000055], [121.1438469960001, 14.198548215000073], [121.14452914300011, 14.199032814000077], [121.14518829400004, 14.199261445000047], [121.1456034580001, 14.19939983300003], [121.14650830200003, 14.199580802000071], [121.14704056300002, 14.199634028000048], [121.1476686310001, 14.199591447000046], [121.14768838700002, 14.199592576000043], [121.14804121400005, 14.199612737000052], [121.14869057200008, 14.200219515000072], [121.14941444800002, 14.20081564800006], [121.14956614800008, 14.200956315000042], [121.1499999350001, 14.201358554000024], [121.15037251800004, 14.201677911000047], [121.1510538120001, 14.202007913000045], [121.15138381400004, 14.202444367000055], [121.15157542800011, 14.203285340000036], [121.1517138160001, 14.20430728100007], [121.15165743400007, 14.204579241000033], [121.15153284700011, 14.205180189000032], [121.15133058800006, 14.205531482000026], [121.15126671700011, 14.206148905000077], [121.1510963930001, 14.206649230000039], [121.15120284500006, 14.207160201000022], [121.15133058800006, 14.207575365000025], [121.15154349200009, 14.208011819000035], [121.15199059200006, 14.208384402000036], [121.15264349900008, 14.208350357000029]]]]}}, {"type": "Feature", "properties": {"psgc_code": 403405054, "name": "San Jose", "corr_code": 43405054.0, "geo_level": "Bgy", "city_class": null, "inc_class": null, "urb_rur": null, "pop_2015": "U", "pop_2020": null, "status": null, "adm4_pcode": "PH0403405054", "adm4_en": "San Jose", "adm3_pcode": "PH0403405", "adm2_pcode": "PH04034", "adm1_pcode": "PH04", "adm0_pcode": "PH", "shape_len": 0.0331153759203, "shape_area": 4.9192934862e-05, "shape_sqkm": 0.587458697353}, "geometry": {"type": "MultiPolygon", "coordinates": [[[[121.1796079820001, 14.216871198000035], [121.17920224700003, 14.216695745000038], [121.17921231800005, 14.216477348000069], [121.17932162600005, 14.214106985000058], [121.17933440000002, 14.213829980000071], [121.17934593600012, 14.213579823000032], [121.17658558100004, 14.20798508200005], [121.17574663100004, 14.208696597000028], [121.17538556300008, 14.20939749300004], [121.1745572320001, 14.211043535000044], [121.1737926190001, 14.21019396500003], [121.17335721500001, 14.209822278000047], [121.17266693900001, 14.20950368900003], [121.17223153400005, 14.209779799000046], [121.1720403810001, 14.209970952000049], [121.17171117300006, 14.210332020000067], [121.17145630200002, 14.210778044000051], [121.17065983000009, 14.210491314000024], [121.17047929600005, 14.211075394000034], [121.17062797100004, 14.211170970000069], [121.17043927800012, 14.211579805000042], [121.17018194700006, 14.212137356000028], [121.17047489900006, 14.21221521700005], [121.17026510700009, 14.212616462000028], [121.17013351800006, 14.21297833400007], [121.17000192800003, 14.213274411000043], [121.16984123800012, 14.213652033000074], [121.16978261200006, 14.213789804000044], [121.16973580000001, 14.213942106000047], [121.16989102100001, 14.213986036000051], [121.17019267500007, 14.214120756000057], [121.1705558320001, 14.214229117000059], [121.17113354300011, 14.214416236000034], [121.17113354300011, 14.214515608000056], [121.17190888400012, 14.21463327600003], [121.17319164700007, 14.215043291000029], [121.17378678800003, 14.215270839000027], [121.17498919400009, 14.215698140000029], [121.17617172700011, 14.216125442000077], [121.17920224700003, 14.216958925000029], [121.1796079820001, 14.216871198000035]]]]}}, {"type": "Feature", "properties": {"psgc_code": 403405060, "name": "Uwisan", "corr_code": 43405060.0, "geo_level": "Bgy", "city_class": null, "inc_class": null, "urb_rur": null, "pop_2015": "R", "pop_2020": null, "status": null, "adm4_pcode": "PH0403405060", "adm4_en": "Uwisan", "adm3_pcode": "PH0403405", "adm2_pcode": "PH04034", "adm1_pcode": "PH04", "adm0_pcode": "PH", "shape_len": 0.0312609678441, "shape_area": 4.6644744887e-05, "shape_sqkm": 0.556976528773}, "geometry": {"type": "MultiPolygon", "coordinates": [[[[121.17486757100005, 14.237940898000033], [121.17499388500005, 14.237699232000068], [121.1750876860001, 14.237376439000059], [121.175188477, 14.237215454000022], [121.17528887900005, 14.237102993000065], [121.17557964900004, 14.237032426000042], [121.175720597, 14.237033503000077], [121.17586970500008, 14.237050818000057], [121.17621708400009, 14.237158613000076], [121.1764728070001, 14.237322321000022], [121.17662191600004, 14.237339636000058], [121.17671357100005, 14.23728372200003], [121.176772518, 14.237170943000024], [121.17684791600004, 14.237074466000024], [121.17697293100002, 14.236994543000037], [121.17706413200005, 14.236995240000056], [121.17713020000008, 14.237028094000038], [121.1771963330001, 14.23705286300003], [121.17730398700007, 14.237069861000066], [121.17741209500002, 14.237030247000064], [121.17749552400005, 14.23696618200006], [121.17761218300006, 14.236894283000026], [121.17776116100003, 14.236927771000069], [121.17784342200002, 14.237009277000027], [121.1779258140001, 14.237074607000068], [121.17802459300003, 14.237164326000027], [121.17811560000007, 14.237189285000056], [121.17825611300009, 14.237160570000071], [121.17834852700003, 14.237094009000032], [121.17852276800011, 14.237079163000033], [121.1787217530001, 14.237080681000066], [121.17899157900001, 14.23712875900003], [121.17889986800003, 14.236984301000064], [121.17860001000008, 14.235614829000042], [121.1786799030001, 14.235583327000029], [121.1783191190001, 14.234484380000026], [121.17803674100003, 14.234159856000076], [121.17787237200002, 14.233965984000065], [121.17767007100008, 14.233725752000055], [121.17747198400002, 14.233515022000063], [121.17720646500004, 14.233236858000055], [121.17688615500003, 14.232924978000028], [121.176578489, 14.232688960000075], [121.17632982700002, 14.232511947000035], [121.17599265900003, 14.23232650400007], [121.17579035800009, 14.232242212000074], [121.17567221900003, 14.23221195900004], [121.17545740500009, 14.232103130000041], [121.17524246000005, 14.232027268000024], [121.17505280300009, 14.231883971000059], [121.17491793600004, 14.231622666000021], [121.1747957120001, 14.231424580000066], [121.17471985000009, 14.231226493000065], [121.174614485, 14.231159060000039], [121.17442482800004, 14.23110848400006], [121.17425624300006, 14.231074768000042], [121.17418881000003, 14.231091626000023], [121.17393171900005, 14.23110005500007], [121.17379263700002, 14.231159060000039], [121.17372098900012, 14.231243352000035], [121.1735650490001, 14.231289712000034], [121.1734891860001, 14.231289712000034], [121.17343439600006, 14.231255996000073], [121.173388036, 14.231205420000038], [121.173303744, 14.231154845000049], [121.17319416400005, 14.231129557000031], [121.17315201800011, 14.231078982000042], [121.17297527100004, 14.231196557000032], [121.17248030200005, 14.231298263000042], [121.17189718800012, 14.230986364000046], [121.171300513, 14.230647344000033], [121.17110068900001, 14.230837805000021], [121.17054369400012, 14.23157776100004], [121.169742702, 14.232882682000024], [121.16954604400007, 14.23322921600004], [121.1692975630001, 14.233523181000066], [121.16818671700003, 14.235121548000052], [121.16818068600003, 14.235322669000027], [121.16841046600007, 14.235420780000027], [121.16912975700006, 14.23578969700003], [121.16922341800012, 14.235850028000073], [121.16932359200007, 14.236055324000063], [121.16948454900012, 14.236318428000061], [121.16954702500004, 14.236329445000024], [121.16969193700004, 14.236451528000032], [121.16978673300002, 14.236473270000033], [121.1699612320001, 14.236482481000053], [121.17023362200007, 14.236618676000035], [121.17030791000002, 14.236655820000067], [121.1708186410001, 14.236857017000034], [121.17089912000006, 14.236804397000071], [121.17090840600008, 14.236699155000053], [121.17101364700011, 14.23650414900004], [121.17102912400003, 14.236405098000034], [121.17118079600004, 14.236024371000042], [121.17122722600004, 14.235863413000061], [121.17127365600004, 14.235826269000029], [121.17140985100002, 14.235872699000026], [121.17238820300008, 14.236074693000035], [121.172447497, 14.236089736000054], [121.1724355120001, 14.236461284000029], [121.17253139500008, 14.236760920000052], [121.1731066960001, 14.237060555000028], [121.17318645000012, 14.237102811000057], [121.17372993800006, 14.237372177000054], [121.17454494700007, 14.237899535000054], [121.17483710200008, 14.238016397000024], [121.17486757100005, 14.237940898000033]]]]}}]}