{"type": "FeatureCollection", "features": [{"type": "Feature", "properties": {"psgc_code": 403403004, "name": "Canlalay", "corr_code": 43403004.0, "geo_level": "Bgy", "city_class": null, "inc_class": null, "urb_rur": null, "pop_2015": "U", "pop_2020": null, "status": null, "adm4_pcode": "PH0403403004", "adm4_en": "Canlalay", "adm3_pcode": "PH0403403", "adm2_pcode": "PH04034", "adm1_pcode": "PH04", "adm0_pcode": "PH", "shape_len": 0.0845201378192, "shape_area": 0.000189280514388, "shape_sqkm": 2.25911350068}, "geometry": {"type": "MultiPolygon", "coordinates": [[[[121.07258102600008, 14.318895480000037], [121.07255397400002, 14.31888910500004], [121.07253007600002, 14.318891050000047], [121.072507846, 14.318897719000063], [121.07248922800011, 14.318909946000076], [121.07247013800009, 14.318926864000048], [121.07184665500006, 14.319931131000033], [121.07160421200001, 14.320342437000022], [121.07159337100006, 14.320390445000044], [121.07139538700005, 14.32077582200003], [121.07215779700005, 14.321399378000024], [121.0725738860001, 14.321992094000052], [121.07276074800006, 14.320363132000068], [121.07329909900011, 14.319782361000023], [121.07296723400009, 14.319162966000022], [121.07293651600003, 14.319116888000053], [121.072896581, 14.319073882000055], [121.07258102600008, 14.318895480000037]]], [[[121.075446843, 14.351148372000068], [121.07559390400002, 14.350858520000031], [121.07601452500012, 14.350965049000024], [121.07596291800007, 14.350598403000049], [121.07663381500004, 14.350760894000075], [121.07695206100004, 14.350615069000071], [121.07701657100006, 14.350892137000073], [121.07744991000004, 14.350664106000067], [121.07761435700002, 14.35057757100003], [121.0775337980001, 14.350415386000066], [121.0774659330001, 14.350278756000023], [121.07740934200001, 14.350164824000046], [121.07730394500004, 14.349978470000053], [121.0773115820001, 14.34991278800004], [121.07736504400009, 14.349868491000052], [121.0774267170001, 14.34984290500006], [121.078911575, 14.349305168000058], [121.07931527000005, 14.349158971000065], [121.07930610500011, 14.349053574000038], [121.07939088100011, 14.349019205000047], [121.07929694000006, 14.347933158000046], [121.07924877000005, 14.347452217000068], [121.07920185400008, 14.346983440000031], [121.07971513600012, 14.346609691000026], [121.07990054900006, 14.346498212000029], [121.07946002900007, 14.34637417700003], [121.07901666200007, 14.346311584000034], [121.07902054200008, 14.345699721000074], [121.07991184700006, 14.345803706000027], [121.08003574700001, 14.345107305000056], [121.08005544600007, 14.344996581000032], [121.08015365400001, 14.344308295000076], [121.08021562400006, 14.34333211300003], [121.08026419900011, 14.342547978000027], [121.08030325300001, 14.342304975000047], [121.08036095500006, 14.341945943000042], [121.08148701700009, 14.341998999000054], [121.0815158800001, 14.341590198000063], [121.0815459050001, 14.341084744000057], [121.0815706630001, 14.33926252200007], [121.08162943000002, 14.338915979000035], [121.08166969700005, 14.338485106000064], [121.08172416600007, 14.338049357000045], [121.07996136400004, 14.337811676000058], [121.08006039800011, 14.33664802800007], [121.08008515600011, 14.33589537100005], [121.08004801800007, 14.335084944000073], [121.07987564200005, 14.335148206000042], [121.07960080400005, 14.334745844000054], [121.07870070900003, 14.33527342800005], [121.0783809190001, 14.335458414000072], [121.07791218400007, 14.335749478000025], [121.07698028000004, 14.33538593700007], [121.076842811, 14.335192190000043], [121.07677199800003, 14.335090871000034], [121.07737948700003, 14.334535452000068], [121.07738363100009, 14.33425519800005], [121.07517157000007, 14.334093881000058], [121.07264388500005, 14.333786106000048], [121.07105917100012, 14.333661686000028], [121.07067281600007, 14.33625485400006], [121.06965126400007, 14.335586917000057], [121.06940242500002, 14.335541078000062], [121.06873366900004, 14.335314749000077], [121.06854895900005, 14.33605529700003], [121.06829492600002, 14.337063173000047], [121.06880840800011, 14.337107938000031], [121.06927063800003, 14.337213786000063], [121.07034457700001, 14.337357851000036], [121.07005434100006, 14.338373427000022], [121.06972983100002, 14.338241423000056], [121.06948018700007, 14.33932892100006], [121.06904144400005, 14.339813503000073], [121.06845863600006, 14.339872439000033], [121.06782425600011, 14.339352918000031], [121.06784619700011, 14.339390218000062], [121.0678876400001, 14.339760235000028], [121.06797959100004, 14.340271074000043], [121.06806131500002, 14.340828315000067], [121.06810235300009, 14.341005659000075], [121.0679914640001, 14.341036492000057], [121.06736787400007, 14.34091982700005], [121.06709263400012, 14.340857328000027], [121.06692060900002, 14.340761496000027], [121.0665507550001, 14.340544832000035], [121.06615939900007, 14.340344834000064], [121.06566912800008, 14.340124003000028], [121.06539979000001, 14.340070897000032], [121.06539922600007, 14.340089266000064], [121.06539841500012, 14.340115662000073], [121.06539649700005, 14.34017813500003], [121.06544680500008, 14.340270713000052], [121.066444423, 14.341250313000046], [121.0662674140001, 14.341473345000054], [121.06574877800006, 14.34205924400004], [121.06570629500004, 14.342089336000072], [121.0656202460001, 14.342104521000067], [121.06553572300004, 14.342132682000056], [121.06543648700006, 14.342234124000072], [121.06528049300005, 14.342381945000056], [121.06423689500002, 14.343586009000035], [121.06506288800006, 14.343725279000068], [121.06581361200006, 14.343784547000041], [121.06596178100006, 14.343666011000039], [121.06610995000005, 14.34376479100007], [121.0660605600001, 14.343942594000055], [121.06580133600005, 14.344542253000043], [121.06588197000008, 14.344880916000022], [121.06588313500004, 14.344881564000048], [121.06690721200005, 14.345451123000032], [121.06704892500011, 14.345629346000067], [121.06735697600004, 14.345794641000055], [121.06758989200011, 14.345869776000029], [121.06781529500006, 14.345997504000024], [121.06816842600006, 14.346192853000048], [121.06843139600005, 14.346403229000032], [121.06866431200001, 14.346545984000045], [121.068934796, 14.346651172000065], [121.06913014500003, 14.34680895400004], [121.06925787300008, 14.34698176300003], [121.06929544000002, 14.347147059000065], [121.06923533300005, 14.347304841000039], [121.06916019900007, 14.347402515000056], [121.0691827390001, 14.347507703000076], [121.06949005600006, 14.347540930000036], [121.0695660230001, 14.347630326000058], [121.06970187800005, 14.347664493000025], [121.06986074400004, 14.347783642000024], [121.07001078400003, 14.347946921000073], [121.07026673400003, 14.348315402000026], [121.07034768100004, 14.348430148000034], [121.07054000800008, 14.348580704000028], [121.07203186800007, 14.349748547000047], [121.0720656310001, 14.349789344000044], [121.07251587200005, 14.350333385000056], [121.07458671800009, 14.34908181700007], [121.07479881100005, 14.350481917000025], [121.07495657200002, 14.351523349000047], [121.07523181200008, 14.351465020000035], [121.075446843, 14.351148372000068]]]]}}, {"type": "Feature", "properties": {"psgc_code": 403403008, "name": "San Francisco", "corr_code": 43403008.0, "geo_level": "Bgy", "city_class": "Halang", "inc_class": null, "urb_rur": null, "pop_2015": "U", "pop_2020": null, "status": null, "adm4_pcode": "PH0403403008", "adm4_en": "San Francisco (Halang)", "adm3_pcode": "PH0403403", "adm2_pcode": "PH04034", "adm1_pcode": "PH04", "adm0_pcode": "PH", "shape_len": 0.105521398851, "shape_area": 0.000263948982662, "shape_sqkm": 3.15041773469}, "geometry": {"type": "MultiPolygon", "coordinates": [[[[121.06528049300005, 14.342381945000056], [121.06543648700006, 14.342234124000072], [121.06553572300004, 14.342132682000056], [121.0656202460001, 14.342104521000067], [121.06570629500004, 14.342089336000072], [121.06574877800006, 14.34205924400004], [121.0662674140001, 14.341473345000054], [121.066444423, 14.341250313000046], [121.06544680500008, 14.340270713000052], [121.06539649700005, 14.34017813500003], [121.06539841500012, 14.340115662000073], [121.06539922600007, 14.340089266000064], [121.06539979000001, 14.340070897000032], [121.06566912800008, 14.340124003000028], [121.06615939900007, 14.340344834000064], [121.0665507550001, 14.340544832000035], [121.06692060900002, 14.340761496000027], [121.06709263400012, 14.340857328000027], [121.06736787400007, 14.34091982700005], [121.0679914640001, 14.341036492000057], [121.06810235300009, 14.341005659000075], [121.06806131500002, 14.340828315000067], [121.06797959100004, 14.340271074000043], [121.0678876400001, 14.339760235000028], [121.06784619700011, 14.339390218000062], [121.06782425600011, 14.339352918000031], [121.06845863600006, 14.339872439000033], [121.06904144400005, 14.339813503000073], [121.06948018700007, 14.33932892100006], [121.06972983100002, 14.338241423000056], [121.07005434100006, 14.338373427000022], [121.07034457700001, 14.337357851000036], [121.06927063800003, 14.337213786000063], [121.06880840800011, 14.337107938000031], [121.06829492600002, 14.337063173000047], [121.06854895900005, 14.33605529700003], [121.06873366900004, 14.335314749000077], [121.06940242500002, 14.335541078000062], [121.0686559070001, 14.334905883000033], [121.06747719400005, 14.333714074000056], [121.06791318100011, 14.332057331000044], [121.06768131700005, 14.33202343000005], [121.06689804400003, 14.33195697900004], [121.06680755800005, 14.331942840000067], [121.06664834900005, 14.331915405000075], [121.066493723, 14.332424762000073], [121.06637345800004, 14.332887629000027], [121.06635324600006, 14.332919969000045], [121.06619185500006, 14.333315742000025], [121.06442042800006, 14.33270906100006], [121.06385069100008, 14.332556026000077], [121.06379174800009, 14.332311187000073], [121.06274438000003, 14.33194846200007], [121.0620325320001, 14.331436113000052], [121.06198719200006, 14.330923764000033], [121.06132068500006, 14.330910162000066], [121.06120733300008, 14.330873889000031], [121.06120279900006, 14.33078320800007], [121.06110305000004, 14.330765072000077], [121.06105770900001, 14.330706129000077], [121.06112118600004, 14.32953634100005], [121.05919874400001, 14.32899678800004], [121.05869447700002, 14.329034267000054], [121.05785666100007, 14.329096537000055], [121.05645563600001, 14.328339349000032], [121.0549364420001, 14.331093791000058], [121.05516796200004, 14.33001695200005], [121.054927657, 14.329980679000073], [121.05500927000003, 14.328747414000077], [121.05532665500004, 14.328720210000029], [121.05429631000004, 14.325453757000048], [121.05414689500003, 14.325556134000067], [121.05400301300006, 14.325647444000026], [121.05391447000011, 14.325700016000042], [121.05382039400001, 14.325766423000061], [121.05367927900011, 14.325830063000069], [121.05357690200003, 14.325854965000076], [121.05348559200002, 14.325868800000023], [121.05332234200011, 14.325899237000044], [121.05325040100001, 14.325929673000076], [121.05315355800008, 14.325946275000035], [121.05308991800007, 14.325946275000035], [121.05297647300006, 14.32595180900006], [121.05279270300002, 14.325926602000038], [121.05261215000007, 14.325899519000075], [121.05248576200006, 14.326143266000031], [121.05239548600002, 14.326441179000028], [121.05207951700004, 14.326567566000051], [121.05148369100004, 14.326766175000046], [121.05079758800002, 14.326919646000022], [121.05016565100004, 14.327046033000045], [121.04973232300006, 14.327181448000033], [121.04941635400007, 14.327334919000066], [121.04910038600008, 14.327334919000066], [121.04870316800009, 14.327280753000025], [121.04851358700012, 14.327452278000067], [121.04839622700001, 14.327614776000075], [121.04815248000011, 14.327641859000039], [121.047917761, 14.327659915000027], [121.0476288750001, 14.327804357000048], [121.04750248800008, 14.327957828000024], [121.04739415600011, 14.328084215000047], [121.0471504090001, 14.328120326000032], [121.04678027400007, 14.327975883000022], [121.04645527800005, 14.327858524000021], [121.04623861400012, 14.32778630200005], [121.04612125400001, 14.327894634000074], [121.04597681100006, 14.327912690000062], [121.04590459000008, 14.327705053000045], [121.04584139600001, 14.327551583000059], [121.04576014700001, 14.327407140000048], [121.04553445500005, 14.327343946000042], [121.04537195700004, 14.327226587000041], [121.04523654200011, 14.327073116000065], [121.04511015500009, 14.326928673000054], [121.0449927950001, 14.326829369000052], [121.04475807600011, 14.32682034100003], [121.04456849500002, 14.326946729000042], [121.04438794100008, 14.326955756000075], [121.04429766400006, 14.326712009000062], [121.04420738800002, 14.326558539000075], [121.04399975100011, 14.326567566000051], [121.04386433600007, 14.326576594000073], [121.04380114300011, 14.326396041000066], [121.04372892100002, 14.326170349000051], [121.04356642300002, 14.325989796000044], [121.04322337200006, 14.325890491000052], [121.04279004300008, 14.325809242000048], [121.04245602000003, 14.325854380000067], [121.04220324500011, 14.326062017000027], [121.04195047000007, 14.326269653000054], [121.04169769500004, 14.32630576400004], [121.04154422500005, 14.32616132100003], [121.04153519700003, 14.325917574000073], [121.04158936300007, 14.325691882000058], [121.04147200300008, 14.325592578000055], [121.04128242200011, 14.325700910000023], [121.04116506300011, 14.325845353000034], [121.04101159200002, 14.325737021000066], [121.04088520500011, 14.325601606000077], [121.0408039560001, 14.325412025000048], [121.04067756800009, 14.32522244300003], [121.04051507000008, 14.325105084000029], [121.04040673800012, 14.324897447000069], [121.04029840600003, 14.324798143000066], [121.0400817420001, 14.324771060000046], [121.03977480100002, 14.32473494900006], [121.03949494300002, 14.324581479000074], [121.03942272200004, 14.324247455000034], [121.03951299900007, 14.323976625000057], [121.03951299900007, 14.323723850000022], [121.03935952800009, 14.323633573000052], [121.03917911700012, 14.32357595700006], [121.0391334840001, 14.323771524000051], [121.03892395200012, 14.324455486000033], [121.0387721620001, 14.324763627000038], [121.03891483900009, 14.324941973000023], [121.03901142100005, 14.325130745000024], [121.03904654100006, 14.325367809000056], [121.039064101, 14.325999978000027], [121.03908605200002, 14.326886770000044], [121.03910800200003, 14.327804293000042], [121.03901154100004, 14.32869727700006], [121.03904563300011, 14.329685942000026], [121.0392331380001, 14.330810976000066], [121.03959110300002, 14.331612136000047], [121.03989793100004, 14.331816687000071], [121.0409211860001, 14.332316250000076], [121.0427689390001, 14.332940606000022], [121.04336559100011, 14.333202581000023], [121.045265459, 14.33388242500007], [121.0460972300001, 14.334193060000075], [121.04647459500006, 14.334319294000068], [121.04818147700007, 14.334924028000046], [121.0483544330001, 14.334959885000046], [121.04976238200004, 14.335236329000054], [121.04978170400011, 14.335240123000062], [121.05000889700011, 14.335289512000031], [121.04991011700008, 14.335961213000076], [121.05207338800005, 14.33688974000006], [121.05231602000003, 14.336981681000054], [121.0524413600001, 14.337044351000031], [121.05453299600003, 14.33797631400006], [121.0550520590001, 14.338114731000076], [121.05527384200002, 14.338173873000073], [121.05612334600005, 14.338351676000059], [121.0569174420001, 14.338809966000042], [121.05728253000007, 14.338971213000036], [121.05762936300005, 14.33913246000003], [121.05794577300003, 14.339272410000035], [121.057974897, 14.339345140000034], [121.05836565700008, 14.339592621000065], [121.05874990500001, 14.339801027000021], [121.05918555500011, 14.340003859000035], [121.05961701800004, 14.340224852000063], [121.05991693800001, 14.340372181000077], [121.06104821500003, 14.341324558000053], [121.06136918200002, 14.341566599000032], [121.06165331600005, 14.341824425000027], [121.06180064500006, 14.341877042000021], [121.06190194500005, 14.341720056000042], [121.06193157900009, 14.341571887000043], [121.06224767300012, 14.341571887000043], [121.06235390400002, 14.341888106000056], [121.06352244700008, 14.341911475000074], [121.06404579500008, 14.341958607000038], [121.06420350600001, 14.341947249000043], [121.06427265200011, 14.342618949000041], [121.06405533700001, 14.34301406700007], [121.06405533700001, 14.34355735400004], [121.06423689500002, 14.343586009000035], [121.06528049300005, 14.342381945000056]]]]}}, {"type": "Feature", "properties": {"psgc_code": 403403009, "name": "Langkiwa", "corr_code": 43403009.00000001, "geo_level": "Bgy", "city_class": null, "inc_class": null, "urb_rur": null, "pop_2015": "U", "pop_2020": null, "status": null, "adm4_pcode": "PH0403403009", "adm4_en": "Langkiwa", "adm3_pcode": "PH0403403", "adm2_pcode": "PH04034", "adm1_pcode": "PH04", "adm0_pcode": "PH", "shape_len": 0.080057656682, "shape_area": 0.000146330448576, "shape_sqkm": 1.74684026029}, "geometry": {"type": "MultiPolygon", "coordinates": [[[[121.06216733400004, 14.306275565000021], [121.06216804400003, 14.305984022000075], [121.06224946100008, 14.305915460000051], [121.06295367900009, 14.30542037400005], [121.06393757, 14.304645049000044], [121.06326652900009, 14.303724635000037], [121.06274964600004, 14.302976514000022], [121.06426402300008, 14.301956350000069], [121.06445445300005, 14.301770454000064], [121.06455420300006, 14.301874737000048], [121.06484438300004, 14.301684307000073], [121.06475370200008, 14.301543751000054], [121.06445445300005, 14.301017800000068], [121.06372446900002, 14.300115521000066], [121.0644635220001, 14.299308458000041], [121.06471289500007, 14.299059085000067], [121.06556319900005, 14.299937073000024], [121.06568771800005, 14.300065647000054], [121.0659325580001, 14.300296884000034], [121.06628621400012, 14.300514519000046], [121.06729277600004, 14.299780001000045], [121.06798648800009, 14.299267652000026], [121.06803182800002, 14.299131630000034], [121.06825853100008, 14.298873188000073], [121.06808442700003, 14.298930321000057], [121.06800785100006, 14.298861806000048], [121.06793127600008, 14.298769110000023], [121.0678547010001, 14.29875097300004], [121.06769953500009, 14.298638126000071], [121.0675411740001, 14.298824825000054], [121.06750809700009, 14.298863821000054], [121.0673871890001, 14.298807397000076], [121.06728643200006, 14.298759034000057], [121.06719978100011, 14.298672383000053], [121.06712522100008, 14.298555505000024], [121.06701438800008, 14.298482960000058], [121.06691992800006, 14.298328802000071], [121.06688541900007, 14.29820084000005], [121.06692899600012, 14.298097565000035], [121.06698013100004, 14.298003357000027], [121.06700683100007, 14.297799828000052], [121.06699776300002, 14.297600329000034], [121.06687383200006, 14.297452216000067], [121.06672571900003, 14.297325263000062], [121.06660481100005, 14.297225513000058], [121.06646576600008, 14.29696253800006], [121.06634183500012, 14.296889993000036], [121.06623604100002, 14.296756994000077], [121.06612722300008, 14.29665422200003], [121.06606072400007, 14.29643960900006], [121.065951906, 14.296330792000049], [121.06576449800002, 14.296252201000073], [121.06583402100011, 14.296113157000036], [121.06575845300006, 14.296031544000073], [121.0656677720001, 14.296007362000068], [121.06559522700002, 14.296070839000038], [121.06554081800004, 14.296107111000026], [121.06545013700008, 14.296107111000026], [121.06538363700008, 14.296043635000046], [121.06540781900003, 14.295949931000052], [121.06543105300011, 14.295890302000032], [121.06545315900007, 14.29583506800003], [121.06555895400004, 14.295756477000054], [121.06567986200002, 14.295762523000064], [121.06565568100007, 14.29566881900007], [121.0656163860001, 14.295578137000064], [121.06558918100006, 14.295496524000043], [121.06560634800007, 14.295371454000076], [121.06561034000003, 14.295342366000057], [121.06554081800004, 14.295312139000032], [121.06548640900007, 14.295197276000067], [121.06545618200005, 14.295034050000027], [121.065513613, 14.294988709000052], [121.06568590800009, 14.294991732000028], [121.06575543000008, 14.294922210000038], [121.06571613500012, 14.294771074000039], [121.06583099800002, 14.294695507000029], [121.0658884290001, 14.294743870000048], [121.06596702000002, 14.294843619000062], [121.06602747400007, 14.294855710000036], [121.06614233700009, 14.294789211000023], [121.0662420860001, 14.294647143000077], [121.0662420860001, 14.294517167000038], [121.06619976800005, 14.294369054000072], [121.06617256400011, 14.294233032000022], [121.06614838200005, 14.29408189700007], [121.06611211000006, 14.293936807000023], [121.0661242000001, 14.293858217000036], [121.06569052000009, 14.293856094000034], [121.06483172500009, 14.293849155000032], [121.06413081000005, 14.29384221500004], [121.06338131600012, 14.293824865000033], [121.06329482300009, 14.292819896000026], [121.06258352200007, 14.292880549000074], [121.0626199730001, 14.291570444000058], [121.06262512700005, 14.290713745000062], [121.06261678900012, 14.290191736000054], [121.06260518900001, 14.289986254000041], [121.0625862500001, 14.289937014000031], [121.06254837300003, 14.289883986000063], [121.06225009200011, 14.289625160000071], [121.06210807600007, 14.289745432000075], [121.06208102200003, 14.289760440000066], [121.0620268020001, 14.289774343000033], [121.06195311700003, 14.289779904000056], [121.06186952700011, 14.289769824000075], [121.06040713000004, 14.289453189000028], [121.05963552700007, 14.28930303900006], [121.05951051500006, 14.289405768000051], [121.05936111900007, 14.289332525000077], [121.05928985800006, 14.289339268000049], [121.05915383600006, 14.289623403000064], [121.05889992800007, 14.289562949000072], [121.05805961600004, 14.289396700000054], [121.05795079800009, 14.289381586000047], [121.0579326620001, 14.289493426000035], [121.05785407100007, 14.289466222000044], [121.05714675800004, 14.289185110000062], [121.05692403400008, 14.290211652000039], [121.05666206, 14.290162485000053], [121.0553439570001, 14.289922472000057], [121.05529022200005, 14.289908903000025], [121.0551699020001, 14.289864421000061], [121.05509214000006, 14.289847714000075], [121.0548908070001, 14.28982439300006], [121.05475597500003, 14.292247006000025], [121.05418952800005, 14.291835045000028], [121.05368487500004, 14.291412784000045], [121.05348919300002, 14.290990523000062], [121.05190314100003, 14.290980224000066], [121.05171775800011, 14.291299495000032], [121.0504310560001, 14.290929213000027], [121.05031317100008, 14.290738782000062], [121.05024969400006, 14.29060276000007], [121.04956051600004, 14.290321648000031], [121.04930207500001, 14.290090411000051], [121.04858698400005, 14.289845783000032], [121.0484659980001, 14.289973491000069], [121.04835173300012, 14.290161692000027], [121.04829796100012, 14.290289399000073], [121.04830468300008, 14.290443993000054], [121.04839878300004, 14.290544814000043], [121.04856682000002, 14.290632193000022], [121.04871469200009, 14.290780065000035], [121.0487953490001, 14.290988431000073], [121.0488760070001, 14.291230403000043], [121.04890289200011, 14.291405161000057], [121.0488760070001, 14.291613526000049], [121.04886256400005, 14.291855498000075], [121.0488222350001, 14.292010092000055], [121.04872141300007, 14.292218457000047], [121.04863403400009, 14.292446986000073], [121.04853321200005, 14.292668794000065], [121.04853321200005, 14.292897324000023], [121.0487415770001, 14.293031753000037], [121.04891633500006, 14.293219954000051], [121.04909109300002, 14.293340940000064], [121.04923224400011, 14.293522419000055], [121.04935323000007, 14.293730784000047], [121.04949438000006, 14.293918985000062], [121.04961536700011, 14.294087021000053], [121.0497565170001, 14.294275222000067], [121.04991111100003, 14.294503752000026], [121.05007242600004, 14.294685231000074], [121.05020013300009, 14.294960811000067], [121.0503614480001, 14.295135568000035], [121.05060342100012, 14.295263276000071], [121.05083195000009, 14.29535065500005], [121.05100670800005, 14.29539098400005], [121.05131589500002, 14.295330491000072], [121.05161163900004, 14.295243112000037], [121.05193537100001, 14.295122388000038], [121.05219246700005, 14.295061175000058], [121.0523026510001, 14.295030568000072], [121.05251077600008, 14.295006083000033], [121.05282908400011, 14.294926506000024], [121.05306781600007, 14.294914263000067], [121.05325145600011, 14.29488365700007], [121.05347182300011, 14.294865293000043], [121.05360649300007, 14.294853050000029], [121.05385746700006, 14.294828565000046], [121.05402274200003, 14.294816322000031], [121.05418189700003, 14.294810201000075], [121.05437165800004, 14.294810201000075], [121.05449408400011, 14.294840807000071], [121.05462875300009, 14.294871414000056], [121.05481239300002, 14.294926506000024], [121.05489809200003, 14.294975476000047], [121.05492257700007, 14.29512851000004], [121.05491033400006, 14.295257057000072], [121.054843, 14.295428454000046], [121.05482463600003, 14.295557002000066], [121.05480015100011, 14.295661065000047], [121.05476342300005, 14.295807976000049], [121.05476342300005, 14.29595488800004], [121.05476954400001, 14.296058951000077], [121.05481851400009, 14.296169134000024], [121.05486136400009, 14.296279318000074], [121.05494706200011, 14.296420109000053], [121.055032761, 14.296499686000061], [121.05512458100009, 14.296560899000042], [121.05527149200009, 14.296615991000067], [121.0553571910001, 14.296664962000023], [121.05546125300009, 14.29676902400007], [121.05551022400005, 14.296836359000054], [121.05558980100011, 14.297007756000028], [121.0556204080001, 14.297148546000074], [121.05568162100008, 14.297289337000052], [121.05575507700007, 14.297417884000026], [121.05574283400006, 14.297540311000034], [121.05570610600012, 14.297632131000057], [121.05558368000004, 14.29779740600003], [121.05561428600004, 14.29792595400005], [121.0556755, 14.298036138000043], [121.05580404800003, 14.298085109000056], [121.05592035300003, 14.298091230000068], [121.05602441500002, 14.298091230000068], [121.05617132700002, 14.298085109000056], [121.05629987500004, 14.298060623000026], [121.05639781600007, 14.298060623000026], [121.05653860600012, 14.298085109000056], [121.05671000300003, 14.298152443000049], [121.05682630800004, 14.298232020000057], [121.05691200700005, 14.298268748000055], [121.05700382700002, 14.298329962000025], [121.0571384960001, 14.298495237000054], [121.05712013200002, 14.298642149000045], [121.056960978, 14.298782939000034], [121.05682630800004, 14.29885639500003], [121.05671000300003, 14.298935973000027], [121.05664879000005, 14.299015550000036], [121.05659369800003, 14.299150219000069], [121.05656309200003, 14.299242039000035], [121.05662430500001, 14.29933998000007], [121.05671000300003, 14.299431800000036], [121.05678345900003, 14.299505256000032], [121.05686915800004, 14.29967053100006], [121.05693649200009, 14.299780715000054], [121.0570527970001, 14.299835807000022], [121.0572425580001, 14.29989702000006], [121.05737722800006, 14.29985417100005], [121.05749353300007, 14.299737866000044], [121.057603717, 14.299658289000035], [121.05776287100002, 14.29967053100006], [121.05793426800005, 14.299707259000058], [121.0580444520001, 14.299719502000073], [121.05814239300003, 14.299719502000073], [121.05829542600009, 14.299719502000073], [121.05847906600002, 14.299750109000058], [121.05865658400012, 14.299756230000071], [121.058846345, 14.299848050000037], [121.05888307300006, 14.299964355000043], [121.05891368000005, 14.300221450000038], [121.05892592200007, 14.300331634000031], [121.05896877200007, 14.300417333000041], [121.05901774200004, 14.30049691000005], [121.05909119800003, 14.300637700000038], [121.05916465400003, 14.300754006000034], [121.05929932300012, 14.300876432000052], [121.05939726400004, 14.30099885800007], [121.05947072000004, 14.301066193000054], [121.05956866100007, 14.301188619000072], [121.05963599600011, 14.301335531000063], [121.05952581200006, 14.30145183600007], [121.05937890000007, 14.301482443000054], [121.05928095900003, 14.30149468600007], [121.05918301800011, 14.301531414000067], [121.0590667130001, 14.301635476000058], [121.05905447000009, 14.301739539000039], [121.05905447000009, 14.301898693000055], [121.05905447000009, 14.302063969000073], [121.05902998500005, 14.302229244000046], [121.059036106, 14.302345550000041], [121.05907283400006, 14.30246797600006], [121.05916465400003, 14.302523068000028], [121.05926871600002, 14.302492461000043], [121.05931768700009, 14.302370035000024], [121.05940950700005, 14.302314943000056], [121.05953193300002, 14.302333307000026], [121.05969720900009, 14.302370035000024], [121.05977066500009, 14.302431248000062], [121.05983187800007, 14.302504704000057], [121.059868606, 14.302633252000021], [121.05985636300011, 14.30275567800004], [121.05982575700011, 14.302890347000073], [121.05978902900006, 14.302976046000026], [121.05974618000005, 14.303165807000028], [121.05976454400002, 14.303263748000063], [121.05978902900006, 14.303410660000054], [121.0598869700001, 14.30352696500006], [121.05993594100005, 14.303606542000068], [121.06002163900007, 14.303710605000049], [121.06005836700001, 14.303845274000025], [121.06005224600005, 14.303961579000031], [121.05999103300007, 14.30416970400006], [121.05993594100005, 14.304347222000047], [121.05995430500002, 14.304481891000023], [121.06002163900007, 14.304610439000044], [121.06013794400008, 14.304763472000047], [121.06029097700002, 14.304824685000028], [121.06041952500004, 14.30485529200007], [121.06048073800002, 14.304959355000051], [121.06056643700003, 14.305038932000059], [121.06063377100008, 14.305106266000053], [121.06073783400007, 14.305234814000073], [121.06082353200009, 14.305406211000047], [121.06088474600006, 14.305571487000066], [121.06091535200005, 14.305706156000042], [121.0609912540001, 14.306031830000052], [121.06103791700002, 14.306111431000033], [121.0610488960001, 14.306169073000035], [121.06105987600006, 14.30623769400006], [121.0611230070001, 14.306339253000033], [121.06121907700003, 14.306416109000054], [121.061312401, 14.306462772000032], [121.06140023700004, 14.306481985000062], [121.06150728600005, 14.306517668000026], [121.0615786520001, 14.306531393000057], [121.06166648700002, 14.306539627000063], [121.06176804600011, 14.306558841000026], [121.06183392200012, 14.30656982100004], [121.06192724700009, 14.30659177900003], [121.06199861300001, 14.306602759000043], [121.06208644800006, 14.306627462000051], [121.06216055900006, 14.306638442000065], [121.06216733400004, 14.306275565000021]]]]}}, {"type": "Feature", "properties": {"psgc_code": 403403011, "name": "Loma", "corr_code": 43403011.0, "geo_level": "Bgy", "city_class": null, "inc_class": null, "urb_rur": null, "pop_2015": "U", "pop_2020": null, "status": null, "adm4_pcode": "PH0403403011", "adm4_en": "Loma", "adm3_pcode": "PH0403403", "adm2_pcode": "PH04034", "adm1_pcode": "PH04", "adm0_pcode": "PH", "shape_len": 0.11335230044, "shape_area": 0.000266450734665, "shape_sqkm": 3.18095008372}, "geometry": {"type": "MultiPolygon", "coordinates": [[[[121.07201405700005, 14.297047551000048], [121.07274664800002, 14.296159963000036], [121.07354468100004, 14.295193089000065], [121.07346004500005, 14.295116513000039], [121.0733955610001, 14.295050014000026], [121.07339757600005, 14.294941196000025], [121.073488257, 14.29489484800007], [121.07360110500008, 14.29490895400005], [121.07372201300007, 14.294870666000065], [121.07372201300007, 14.29475177300003], [121.07362931700004, 14.294667137000033], [121.07352856000011, 14.294628850000038], [121.073421757, 14.29466915300003], [121.07335324300004, 14.294782], [121.07325853100008, 14.294816258000026], [121.07320009200009, 14.294695349000051], [121.07321218300001, 14.294616759000064], [121.07311747200004, 14.294628850000038], [121.07304895700008, 14.294723561000069], [121.07293610900001, 14.294673183000043], [121.072954245, 14.294544214000041], [121.0730126840001, 14.294475699000031], [121.07293610900001, 14.294459578000044], [121.07287162500006, 14.29442733600007], [121.07275071600009, 14.294445472000064], [121.07270033800012, 14.294513987000073], [121.07262577800009, 14.294491820000076], [121.07263182300005, 14.29442129000006], [121.07256532400004, 14.29434673000003], [121.07268421700007, 14.294219777000023], [121.07262577800009, 14.294117005000032], [121.07260361100009, 14.293867127000055], [121.0725189750001, 14.29383690000003], [121.07261167200011, 14.293709947000025], [121.07259353500001, 14.293556796000075], [121.07265399000005, 14.29343790300004], [121.07264592900003, 14.293337146000056], [121.07257136900012, 14.293339161000063], [121.07256532400004, 14.293270646000053], [121.07261771700007, 14.293242434000035], [121.07268824700009, 14.293224298000041], [121.07270436800002, 14.293173920000072], [121.07266003500001, 14.29313563200003], [121.07269832300005, 14.293016739000052], [121.07277288300008, 14.292994572000055], [121.07283132200007, 14.292984497000077], [121.07287968500009, 14.292992557000048], [121.07291797300002, 14.292948224000043], [121.07296029100007, 14.292891800000064], [121.07291394300012, 14.292789028000072], [121.07285953400003, 14.292728574000023], [121.07281117000002, 14.292754771000034], [121.07277489800003, 14.292847467000058], [121.0727366100001, 14.292879709000033], [121.07268824700009, 14.292829331000064], [121.07264391400008, 14.29287366400007], [121.07261368700006, 14.292801119000046], [121.07268220200001, 14.292764846000068], [121.07269429200005, 14.29266812000003], [121.07268220200001, 14.292601620000028], [121.07266003500001, 14.292521015000034], [121.07260361100009, 14.292470636000076], [121.07254920200012, 14.292579454000077], [121.07249882400004, 14.292627817000039], [121.07244643000001, 14.292700362000062], [121.0723537340001, 14.292670135000037], [121.07243232400003, 14.292607666000038], [121.07242829400002, 14.292555272000072], [121.07233761300006, 14.29257139300006], [121.0722469320001, 14.292339652000067], [121.07216834100007, 14.29234368300007], [121.07215020500007, 14.292240910000032], [121.07219856800009, 14.292172396000069], [121.07217640200008, 14.292025291000073], [121.07212199300011, 14.29195879100007], [121.07203131200004, 14.291987003000031], [121.0719668270001, 14.291926549000038], [121.07184144300004, 14.291553663000059], [121.07176871400009, 14.291337373000033], [121.07179931900009, 14.290801787000078], [121.07223970700011, 14.289372317000073], [121.07285970400005, 14.287567969000065], [121.07301818000008, 14.287067534000073], [121.0730807760001, 14.286870805000035], [121.07327750600007, 14.28555629400006], [121.07333541700007, 14.285127744000022], [121.073685898, 14.282534140000053], [121.07375302000003, 14.282119631000057], [121.07385922500009, 14.281463771000062], [121.07393318600009, 14.281227288000025], [121.07654784800002, 14.282771232000073], [121.0776100920001, 14.283397644000047], [121.07761034200007, 14.283398628000043], [121.07976841800007, 14.28467296100007], [121.08105463900006, 14.28234965300004], [121.08162365400005, 14.28265370500003], [121.08225137400007, 14.282973393000077], [121.08242303100008, 14.282794188000025], [121.08247129100005, 14.282743005000043], [121.08267864000004, 14.282500050000067], [121.08278964500005, 14.282294795000041], [121.08280640100008, 14.282173318000048], [121.08271634000005, 14.282007857000053], [121.0825257460001, 14.281785846000048], [121.08232258500004, 14.28161829100003], [121.08200632500007, 14.281465397000034], [121.08182201500006, 14.281369053000049], [121.0816670260001, 14.281276898000044], [121.08151203800003, 14.281096776000027], [121.08133191600007, 14.280887332000077], [121.08120625000004, 14.280759572000022], [121.08106382800008, 14.280665322000061], [121.08092559500005, 14.280631811000035], [121.08081459000005, 14.280688361000045], [121.08063237400006, 14.280799366000053], [121.08043759100008, 14.280862199000069], [121.08035800200003, 14.280876860000035], [121.0802302410001, 14.280874766000068], [121.07998100300006, 14.280726061000053], [121.07980507000002, 14.280592016000071], [121.07967731000008, 14.280489389000024], [121.07957468200004, 14.280332306000048], [121.07954954900003, 14.280112390000056], [121.0795202270001, 14.279888285000027], [121.07945529900007, 14.279752147000067], [121.07933172700007, 14.279569930000036], [121.07920187200011, 14.279490342000031], [121.07901127800005, 14.279329070000074], [121.07859448500005, 14.27900862100006], [121.07839551300003, 14.278889238000033], [121.07810019700003, 14.278843160000065], [121.07795987000009, 14.27883687700006], [121.07780278700011, 14.278912277000074], [121.07773157600002, 14.279019093000045], [121.07763313800001, 14.279232726000032], [121.0775556430001, 14.279266237000058], [121.07746348800003, 14.279268331000026], [121.07729383900005, 14.279174082000054], [121.07708858400008, 14.279052604000071], [121.07692521700005, 14.278949977000025], [121.07639951300007, 14.278644189000033], [121.07567483800005, 14.27836772300003], [121.07545911000011, 14.278235773000063], [121.07526851600005, 14.278103823000038], [121.07508420600004, 14.277932080000028], [121.07485172300005, 14.27778756300006], [121.07460876800008, 14.277674464000029], [121.0744286470001, 14.277603253000052], [121.074307169, 14.277592780000077], [121.07408725300002, 14.277567647000069], [121.07384429800004, 14.277546703000041], [121.07364323200011, 14.27746920900006], [121.07345473300006, 14.277293276000023], [121.07332487800011, 14.277186459000063], [121.0731510390001, 14.27706498200007], [121.07276985100009, 14.276903710000056], [121.0726860740001, 14.276811555000052], [121.07263790200011, 14.276606300000026], [121.07254365200004, 14.27645340600003], [121.07233420800003, 14.276340306000066], [121.07211638600006, 14.276239773000043], [121.07186714800002, 14.27622092300004], [121.07165561000011, 14.276218829000072], [121.07142941100005, 14.276139240000077], [121.07136657700005, 14.276120390000074], [121.07129955500011, 14.276076407000062], [121.07114875600007, 14.275940269000046], [121.0709791060001, 14.275812508000058], [121.07080945700011, 14.275760147000028], [121.07070682900007, 14.275766430000033], [121.07042653600001, 14.275785165000059], [121.07032824400005, 14.275574541000026], [121.0705248270001, 14.275209460000042], [121.07080565800004, 14.274760130000061], [121.0707635340001, 14.274437173000024], [121.07048270200005, 14.27419846600003], [121.07015974500007, 14.274029967000047], [121.06979466400003, 14.273763177000035], [121.06959808200008, 14.273959759000036], [121.06959420800001, 14.273958837000066], [121.06930320900005, 14.273889552000071], [121.06930320900005, 14.273482346000037], [121.0692751260001, 14.273187472000075], [121.06899429400005, 14.272752183000023], [121.0686432550001, 14.272513476000029], [121.0684762520001, 14.27249701200003], [121.068159992, 14.272396479000065], [121.06797987000004, 14.272270812000045], [121.06783535400007, 14.272055085000034], [121.06775786000003, 14.271908474000043], [121.06763428800002, 14.271828886000037], [121.06751909400009, 14.27186449100003], [121.06744369400008, 14.27194617400005], [121.06743531600011, 14.272073935000037], [121.06745416600006, 14.272268718000078], [121.0673850500001, 14.27249282300005], [121.06729080000002, 14.27256193900007], [121.0671148670001, 14.272612206000076], [121.06700595600012, 14.27257869500005], [121.06690751800011, 14.27248863400007], [121.06686562900006, 14.272329456000023], [121.06684887400002, 14.27219541200003], [121.0667965130001, 14.272023668000031], [121.06668760200012, 14.271885436000048], [121.06654936900009, 14.27175767500006], [121.06650329100012, 14.271581742000023], [121.06650538600002, 14.271416281000029], [121.06652423600008, 14.271261293000066], [121.06655565200003, 14.271112588000051], [121.06649281900002, 14.27099948800003], [121.0664153250001, 14.270861255000057], [121.06626662000008, 14.27073349400007], [121.06618074800008, 14.270605734000071], [121.06615142600003, 14.270521956000039], [121.06605508100006, 14.270457028000067], [121.06587077100005, 14.270385818000022], [121.06573253800002, 14.270364873000062], [121.06562572200005, 14.270304134000071], [121.06462976400007, 14.272102301000075], [121.06282850700006, 14.275289830000077], [121.06244144900006, 14.276133385000037], [121.06239654900003, 14.276248561000045], [121.06236336300003, 14.276336408000077], [121.06233798500011, 14.27641449400005], [121.06232627200006, 14.27648282000007], [121.06225162800001, 14.276865913000051], [121.06203646900008, 14.278615578000029], [121.06225922600004, 14.27864595400007], [121.06210015300007, 14.279726160000052], [121.06278209600009, 14.279821105000053], [121.063023315, 14.27984144900006], [121.06488621800008, 14.279928636000022], [121.06504908000011, 14.280066904000023], [121.06524215000002, 14.280354154000065], [121.06526569500011, 14.280679077000059], [121.06499257200005, 14.281865750000065], [121.06470532100002, 14.28242612400004], [121.06475712100007, 14.282816972000035], [121.06504908000011, 14.283010042000058], [121.0652704040001, 14.283570416000032], [121.06533633000004, 14.283772904000045], [121.0652751130001, 14.28387179300006], [121.0652798220001, 14.284013064000021], [121.06537871100011, 14.284102535000045], [121.0654870190001, 14.284182589000068], [121.06534574800003, 14.284253224000054], [121.06543051100005, 14.284465130000058], [121.06526569500011, 14.284521638000058], [121.06527065600005, 14.284539995000046], [121.06531278500006, 14.284695872000043], [121.06514326000001, 14.284644073000038], [121.064931354, 14.284634655000048], [121.06478537500004, 14.284681745000057], [121.06466764900006, 14.284733544000062], [121.06463468600009, 14.284870106000028], [121.06463939500009, 14.284992540000076], [121.06476653900006, 14.285091430000023], [121.06489368200005, 14.285204446000023], [121.0648418830001, 14.28533629900005], [121.06478066600005, 14.285416352000027], [121.06416849300001, 14.285303336000027], [121.0633255780001, 14.285190319000037], [121.06297240100002, 14.285185610000042], [121.06294885600005, 14.285308045000022], [121.06264277000002, 14.285896672000035], [121.06271811400006, 14.286282812000024], [121.0626804420001, 14.286777259000075], [121.06262393400004, 14.286852604000046], [121.06255691700005, 14.28694734100003], [121.06266939700004, 14.287228542000037], [121.06272563700009, 14.287341023000067], [121.06292247800002, 14.287565983000036], [121.06248976800009, 14.288188194000043], [121.06175033400007, 14.288013012000022], [121.06084182900008, 14.287799126000039], [121.05992110200009, 14.287562833000038], [121.05985591800004, 14.287562833000038], [121.05980091800006, 14.287583203000054], [121.05976017800003, 14.287619869000025], [121.05973369700007, 14.287670795000054], [121.05945452900005, 14.287604215000044], [121.0594221990001, 14.287599796000052], [121.05938305500001, 14.287599796000052], [121.05933851200007, 14.287605196000072], [121.0592993680001, 14.287622743000043], [121.05927845800011, 14.287638908000076], [121.05899026700001, 14.287921046000065], [121.05896732000008, 14.287956141000052], [121.05895787200006, 14.28799258500004], [121.05895652200002, 14.288030379000077], [121.05896732000008, 14.288068173000056], [121.059002415, 14.28809381900004], [121.05904425800009, 14.288110017000065], [121.05909150100001, 14.288114066000048], [121.05963276600005, 14.288172107000037], [121.05961662000004, 14.28835016100004], [121.05959296900005, 14.288656308000043], [121.05959454900005, 14.288679525000077], [121.05960102100005, 14.28871106400004], [121.05961071000002, 14.288740228000052], [121.05961722000006, 14.288753239000073], [121.05962750200001, 14.288766052000028], [121.05963936500007, 14.288777125000024], [121.05963552700007, 14.28930303900006], [121.06040713000004, 14.289453189000028], [121.06186952700011, 14.289769824000075], [121.06195311700003, 14.289779904000056], [121.0620268020001, 14.289774343000033], [121.06208102200003, 14.289760440000066], [121.06210807600007, 14.289745432000075], [121.06225009200011, 14.289625160000071], [121.06254837300003, 14.289883986000063], [121.0625862500001, 14.289937014000031], [121.06260518900001, 14.289986254000041], [121.06261678900012, 14.290191736000054], [121.06262512700005, 14.290713745000062], [121.0626199730001, 14.291570444000058], [121.06258352200007, 14.292880549000074], [121.06329482300009, 14.292819896000026], [121.06338131600012, 14.293824865000033], [121.06413081000005, 14.29384221500004], [121.06483172500009, 14.293849155000032], [121.06569052000009, 14.293856094000034], [121.0661242000001, 14.293858217000036], [121.06611211000006, 14.293936807000023], [121.06614838200005, 14.29408189700007], [121.06617256400011, 14.294233032000022], [121.06619976800005, 14.294369054000072], [121.0662420860001, 14.294517167000038], [121.0662420860001, 14.294647143000077], [121.06614233700009, 14.294789211000023], [121.06602747400007, 14.294855710000036], [121.06596702000002, 14.294843619000062], [121.0658884290001, 14.294743870000048], [121.06583099800002, 14.294695507000029], [121.06571613500012, 14.294771074000039], [121.06575543000008, 14.294922210000038], [121.06568590800009, 14.294991732000028], [121.065513613, 14.294988709000052], [121.06545618200005, 14.295034050000027], [121.06548640900007, 14.295197276000067], [121.06554081800004, 14.295312139000032], [121.06561034000003, 14.295342366000057], [121.06560634800007, 14.295371454000076], [121.06558918100006, 14.295496524000043], [121.0656163860001, 14.295578137000064], [121.06565568100007, 14.29566881900007], [121.06567986200002, 14.295762523000064], [121.06555895400004, 14.295756477000054], [121.06545315900007, 14.29583506800003], [121.06543105300011, 14.295890302000032], [121.06540781900003, 14.295949931000052], [121.06538363700008, 14.296043635000046], [121.06545013700008, 14.296107111000026], [121.06554081800004, 14.296107111000026], [121.06559522700002, 14.296070839000038], [121.0656677720001, 14.296007362000068], [121.06575845300006, 14.296031544000073], [121.06583402100011, 14.296113157000036], [121.06576449800002, 14.296252201000073], [121.065951906, 14.296330792000049], [121.06606072400007, 14.29643960900006], [121.06612722300008, 14.29665422200003], [121.06623604100002, 14.296756994000077], [121.06634183500012, 14.296889993000036], [121.06646576600008, 14.29696253800006], [121.06660481100005, 14.297225513000058], [121.06672571900003, 14.297325263000062], [121.06687383200006, 14.297452216000067], [121.06699776300002, 14.297600329000034], [121.06700683100007, 14.297799828000052], [121.06698013100004, 14.298003357000027], [121.06692899600012, 14.298097565000035], [121.06688541900007, 14.29820084000005], [121.06691992800006, 14.298328802000071], [121.06701438800008, 14.298482960000058], [121.06712522100008, 14.298555505000024], [121.06719978100011, 14.298672383000053], [121.06728643200006, 14.298759034000057], [121.0673871890001, 14.298807397000076], [121.06750809700009, 14.298863821000054], [121.0675411740001, 14.298824825000054], [121.06769953500009, 14.298638126000071], [121.0678547010001, 14.29875097300004], [121.06793127600008, 14.298769110000023], [121.06800785100006, 14.298861806000048], [121.06808442700003, 14.298930321000057], [121.06825853100008, 14.298873188000073], [121.06849430300008, 14.299090823000029], [121.06859846200007, 14.299245618000043], [121.0688298230001, 14.299385537000035], [121.06898851500011, 14.299458082000058], [121.07201405700005, 14.297047551000048]]]]}}, {"type": "Feature", "properties": {"psgc_code": 403403015, "name": "Platero", "corr_code": 43403015.0, "geo_level": "Bgy", "city_class": null, "inc_class": null, "urb_rur": null, "pop_2015": "U", "pop_2020": null, "status": null, "adm4_pcode": "PH0403403015", "adm4_en": "Platero", "adm3_pcode": "PH0403403", "adm2_pcode": "PH04034", "adm1_pcode": "PH04", "adm0_pcode": "PH", "shape_len": 0.039044691598, "shape_area": 6.8234247955e-05, "shape_sqkm": 0.814462452343}, "geometry": {"type": "MultiPolygon", "coordinates": [[[[121.09615974200005, 14.327900344000057], [121.0961616620001, 14.32788490200005], [121.09625479500005, 14.32731446300005], [121.0964119570001, 14.326898276000065], [121.09646725400012, 14.326356941000029], [121.09660404300007, 14.325629340000035], [121.09661568500007, 14.325294644000053], [121.09677866700008, 14.32479405500004], [121.09690538300003, 14.324243351000064], [121.09699112700002, 14.32386563700004], [121.09697539000001, 14.32375925100007], [121.09723560000009, 14.322972143000072], [121.09713082600001, 14.322759684000061], [121.0970085890001, 14.322669462000022], [121.09690672500005, 14.322582149000027], [121.09689217300001, 14.322500658000024], [121.09697366400007, 14.322244543000068], [121.09683105400006, 14.32183999700004], [121.0968083790001, 14.32172115800006], [121.09672021000006, 14.321575121000024], [121.09665665000011, 14.321484725000062], [121.09660580200011, 14.321448002000068], [121.09621173200003, 14.321243198000047], [121.09589534700001, 14.321021446000032], [121.0956524070001, 14.320877377000045], [121.09544195400008, 14.320716359000073], [121.09540664300005, 14.320696585000064], [121.09535862000007, 14.320690935000073], [121.09521737700004, 14.320712122000032], [121.09517076600002, 14.320710709000025], [121.0951170940001, 14.32069376000004], [121.09508037000012, 14.320665511000072], [121.09502528500002, 14.320585003000076], [121.09493887000008, 14.320525621000058], [121.0948699170001, 14.320466358000033], [121.09482895600001, 14.320445171000074], [121.09467641300012, 14.320398561000047], [121.09463969, 14.320377374000032], [121.09455070600006, 14.32032511400007], [121.09449420900012, 14.320305340000061], [121.0943346030001, 14.320296865000046], [121.0942653940001, 14.32028697800007], [121.09415664700009, 14.320293468000045], [121.09398210000006, 14.320304609000061], [121.09379501300009, 14.320260100000041], [121.09370356900001, 14.320174628000075], [121.09348074400009, 14.320063215000062], [121.093309911, 14.320022364000067], [121.09319478500004, 14.319966658000055], [121.09254512400003, 14.319585891000031], [121.0922046070001, 14.319762697000044], [121.0919819610001, 14.319572794000067], [121.09098988100004, 14.319138098000053], [121.0903383110001, 14.318865566000056], [121.08874868600003, 14.317428191000033], [121.0885620570001, 14.317624643000045], [121.08764855400011, 14.317074577000028], [121.08701990700001, 14.31697635100005], [121.08684310000001, 14.318115774000034], [121.0861358730001, 14.318115774000034], [121.08547775800002, 14.318066661000046], [121.08527792000007, 14.318279597000071], [121.08520886200006, 14.318431525000051], [121.08518426, 14.318719439000063], [121.08543361300008, 14.319182221000062], [121.08549912100011, 14.319294219000028], [121.08629366900004, 14.320352912000033], [121.0870248220001, 14.321367229000032], [121.08738617300003, 14.321901859000036], [121.08773325900006, 14.322473468000055], [121.08791393400008, 14.322850668000058], [121.08804389400007, 14.32316447200003], [121.088186532, 14.32362091400006], [121.08815336600003, 14.323780978000059], [121.0882216550001, 14.324242740000045], [121.0882411660001, 14.324405333000072], [121.08826869200004, 14.324804143000051], [121.08827043300005, 14.325091474000033], [121.08877447000009, 14.32465897700007], [121.08893882100006, 14.324823732000027], [121.08901474700008, 14.324873249000063], [121.08902795100005, 14.324942573000044], [121.089126985, 14.325008596000032], [121.0891765020001, 14.325048209000045], [121.08933165500002, 14.32507461800003], [121.08951981900009, 14.325081220000072], [121.089632058, 14.325114232000033], [121.08973109200008, 14.325213266000048], [121.08984333, 14.325312299000075], [121.08999188100006, 14.325325504000034], [121.09005790300012, 14.325335407000068], [121.0901074200001, 14.325401430000056], [121.09012722700004, 14.325450947000036], [121.0903186920001, 14.325533475000043], [121.09049365200008, 14.325536776000035], [121.09054977100004, 14.32556648600007], [121.09059598700003, 14.32566552000003], [121.09080065700005, 14.325682026000038], [121.09083696900007, 14.325748048000037], [121.09093600300002, 14.325833878000026], [121.09100862800005, 14.325969224000062], [121.09091949800006, 14.326114473000075], [121.0909492080001, 14.326187098000048], [121.09107795200009, 14.326223411000058], [121.0912033950001, 14.326193701000022], [121.09131563300002, 14.326127678000034], [121.0914146670001, 14.326111172000026], [121.09143777500003, 14.326200303000064], [121.09156651900003, 14.32633234800005], [121.09164904700003, 14.326286132000064], [121.09170516600011, 14.326210206000042], [121.09169856400001, 14.32608476300004], [121.09183060900011, 14.32608476300004], [121.09193624500006, 14.32615738800007], [121.09218052800009, 14.32617719500007], [121.0925502550001, 14.326137581000069], [121.092715311, 14.326230013000043], [121.09279849600011, 14.326304152000034], [121.09291998100002, 14.326408274000073], [121.09349107600008, 14.326863829000047], [121.09368584300012, 14.327137823000044], [121.09385420000001, 14.327223652000043], [121.09410178500002, 14.327226954000025], [121.0943262610001, 14.327263266000045], [121.09477521500003, 14.327415118000033], [121.09497421800006, 14.327500729000064], [121.09505323500002, 14.327528219000044], [121.09531660000005, 14.327557066000054], [121.09546845200009, 14.327603282000041], [121.0955113660001, 14.327679208000063], [121.09568962700007, 14.327788145000056], [121.09577875800005, 14.327906986000073], [121.0959768250001, 14.328121559000067], [121.09610556900009, 14.32833613200006], [121.09615974200005, 14.327900344000057]]]]}}, {"type": "Feature", "properties": {"psgc_code": 403403024, "name": "Timbao", "corr_code": 43403024.0, "geo_level": "Bgy", "city_class": null, "inc_class": null, "urb_rur": null, "pop_2015": "U", "pop_2020": null, "status": null, "adm4_pcode": "PH0403403024", "adm4_en": "Timbao", "adm3_pcode": "PH0403403", "adm2_pcode": "PH04034", "adm1_pcode": "PH04", "adm0_pcode": "PH", "shape_len": 0.0856013596149, "shape_area": 0.000193201788431, "shape_sqkm": 2.30649834898}, "geometry": {"type": "MultiPolygon", "coordinates": [[[[121.0548908070001, 14.28982439300006], [121.05509214000006, 14.289847714000075], [121.0551699020001, 14.289864421000061], [121.05529022200005, 14.289908903000025], [121.0553439570001, 14.289922472000057], [121.05666206, 14.290162485000053], [121.05692403400008, 14.290211652000039], [121.05714675800004, 14.289185110000062], [121.05785407100007, 14.289466222000044], [121.0579326620001, 14.289493426000035], [121.05795079800009, 14.289381586000047], [121.05805961600004, 14.289396700000054], [121.05889992800007, 14.289562949000072], [121.05915383600006, 14.289623403000064], [121.05928985800006, 14.289339268000049], [121.05936111900007, 14.289332525000077], [121.05951051500006, 14.289405768000051], [121.05963552700007, 14.28930303900006], [121.05963936500007, 14.288777125000024], [121.05962750200001, 14.288766052000028], [121.05961722000006, 14.288753239000073], [121.05961071000002, 14.288740228000052], [121.05960102100005, 14.28871106400004], [121.05959454900005, 14.288679525000077], [121.05959296900005, 14.288656308000043], [121.05961662000004, 14.28835016100004], [121.05963276600005, 14.288172107000037], [121.05909150100001, 14.288114066000048], [121.05904425800009, 14.288110017000065], [121.059002415, 14.28809381900004], [121.05896732000008, 14.288068173000056], [121.05895652200002, 14.288030379000077], [121.05895787200006, 14.28799258500004], [121.05896732000008, 14.287956141000052], [121.05899026700001, 14.287921046000065], [121.05927845800011, 14.287638908000076], [121.0592993680001, 14.287622743000043], [121.05933851200007, 14.287605196000072], [121.05938305500001, 14.287599796000052], [121.0594221990001, 14.287599796000052], [121.05945452900005, 14.287604215000044], [121.05973369700007, 14.287670795000054], [121.05976017800003, 14.287619869000025], [121.05980091800006, 14.287583203000054], [121.05985591800004, 14.287562833000038], [121.05992110200009, 14.287562833000038], [121.06084182900008, 14.287799126000039], [121.06175033400007, 14.288013012000022], [121.06248976800009, 14.288188194000043], [121.06292247800002, 14.287565983000036], [121.06272563700009, 14.287341023000067], [121.06266939700004, 14.287228542000037], [121.06255691700005, 14.28694734100003], [121.06262393400004, 14.286852604000046], [121.0626804420001, 14.286777259000075], [121.06271811400006, 14.286282812000024], [121.06264277000002, 14.285896672000035], [121.06294885600005, 14.285308045000022], [121.06297240100002, 14.285185610000042], [121.0633255780001, 14.285190319000037], [121.06416849300001, 14.285303336000027], [121.06478066600005, 14.285416352000027], [121.0648418830001, 14.28533629900005], [121.06489368200005, 14.285204446000023], [121.06476653900006, 14.285091430000023], [121.06463939500009, 14.284992540000076], [121.06463468600009, 14.284870106000028], [121.06466764900006, 14.284733544000062], [121.06478537500004, 14.284681745000057], [121.064931354, 14.284634655000048], [121.06514326000001, 14.284644073000038], [121.06531278500006, 14.284695872000043], [121.06527065600005, 14.284539995000046], [121.06526569500011, 14.284521638000058], [121.06543051100005, 14.284465130000058], [121.06534574800003, 14.284253224000054], [121.0654870190001, 14.284182589000068], [121.06537871100011, 14.284102535000045], [121.0652798220001, 14.284013064000021], [121.0652751130001, 14.28387179300006], [121.06533633000004, 14.283772904000045], [121.0652704040001, 14.283570416000032], [121.06504908000011, 14.283010042000058], [121.06475712100007, 14.282816972000035], [121.06470532100002, 14.28242612400004], [121.06499257200005, 14.281865750000065], [121.06526569500011, 14.280679077000059], [121.06524215000002, 14.280354154000065], [121.06504908000011, 14.280066904000023], [121.06488621800008, 14.279928636000022], [121.063023315, 14.27984144900006], [121.06278209600009, 14.279821105000053], [121.06210015300007, 14.279726160000052], [121.06093067600011, 14.279557379000039], [121.05979302300011, 14.279421012000057], [121.05957602400008, 14.279409387000044], [121.0594152110001, 14.27940551200004], [121.05920596200008, 14.279415200000074], [121.05901414900006, 14.279438449000054], [121.0584135250001, 14.279558574000077], [121.05827402600005, 14.279577949000043], [121.05778025200004, 14.279634896000061], [121.05761120600005, 14.279651501000046], [121.05740487000003, 14.279339597000046], [121.05720813100004, 14.27909967200003], [121.05699699700006, 14.278859746000023], [121.05672348200005, 14.278586231000077], [121.05635879500005, 14.27834150700005], [121.05566205500008, 14.277949916000068], [121.05559646600011, 14.278258798000024], [121.05546115300001, 14.278835495000067], [121.05544883200002, 14.278912197000068], [121.0553057510001, 14.279802936000067], [121.05305360400007, 14.27983217700006], [121.05264295500001, 14.27983750900006], [121.0526702730001, 14.279679979000036], [121.05195526400007, 14.279685372000074], [121.0510052410001, 14.279692537000074], [121.05096992400001, 14.279925633000062], [121.0506997440001, 14.279964483000072], [121.05056069600005, 14.279925048000052], [121.04974086900006, 14.279692537000074], [121.05060262000006, 14.279120391000049], [121.0502423800001, 14.278548245000025], [121.04992628700006, 14.278004353000028], [121.04870916800007, 14.276015906000055], [121.04809458800003, 14.275015017000044], [121.0471463770001, 14.273680498000033], [121.04582941800004, 14.274400436000064], [121.04493388600008, 14.27404924700005], [121.04378805500005, 14.276625552000041], [121.04395112100008, 14.276661001000036], [121.04407873700006, 14.276575924000042], [121.04422053300004, 14.276363230000072], [121.04429852100009, 14.276256882000041], [121.0445041260001, 14.276271062000035], [121.04475935900007, 14.276405768000075], [121.04490824400011, 14.276505026000052], [121.04490824400011, 14.276668091000033], [121.04488697500005, 14.276816977000067], [121.04485152600012, 14.277065120000032], [121.044794808, 14.277284904000055], [121.044837346, 14.277419611000028], [121.0449933220001, 14.277490509000074], [121.04527691400006, 14.27752595800007], [121.04556050700012, 14.277540137000074], [121.04576611100003, 14.277660664000052], [121.04580156000009, 14.277852089000078], [121.04583700900002, 14.278121501000044], [121.0457590210001, 14.27831292600007], [121.04554632700001, 14.278419273000054], [121.04543289000003, 14.278419273000054], [121.0452981840001, 14.278376734000062], [121.04517765700007, 14.278171130000032], [121.04500750200009, 14.277922987000068], [121.04481607700006, 14.278029334000053], [121.04468137100002, 14.277930077000065], [121.04455375400005, 14.277951346000066], [121.04447576600012, 14.278064783000048], [121.04447576600012, 14.278234938000026], [121.04452539500005, 14.278433453000048], [121.0445608440001, 14.278617788000076], [121.04456793400004, 14.278787943000054], [121.0446175620001, 14.278979368000023], [121.04466010100009, 14.27912116400006], [121.04477353800007, 14.27926296000004], [121.04498623200004, 14.27946856400007], [121.04512093900007, 14.279638720000037], [121.04527691400006, 14.279801785000075], [121.04543289000003, 14.279943581000055], [121.04554632700001, 14.280099557000028], [121.04563849400006, 14.28027680200006], [121.04565267400005, 14.280432778000034], [121.0456597640001, 14.280624203000059], [121.04566685400005, 14.280815627000038], [121.04575193100004, 14.280985783000062], [121.04590081700007, 14.281070860000057], [121.04604261300005, 14.281170118000034], [121.0461206010001, 14.281347363000066], [121.0460780620001, 14.281552967000039], [121.04600716400012, 14.281744392000064], [121.04604261300005, 14.281907457000045], [121.04619149900009, 14.281978356000025], [121.04643255300005, 14.282020894000027], [121.04664524700001, 14.282091792000074], [121.04673550600012, 14.28229049500004], [121.046855574, 14.282650698000054], [121.04704777100005, 14.282721041000059], [121.0472561360001, 14.282842027000072], [121.04745778000006, 14.282842027000072], [121.04768630900003, 14.28286219100005], [121.04794172400011, 14.282976456000029], [121.04808287500009, 14.283117607000065], [121.0482441900001, 14.283299086000056], [121.04845255500004, 14.283514172000025], [121.04859370500003, 14.28374270200004], [121.04866764100007, 14.284018282000034], [121.04874829900007, 14.284226647000025], [121.04873485600001, 14.284455176000051], [121.04870124900003, 14.284690427000044], [121.04872813500003, 14.284851742000058], [121.0488222350001, 14.28506010700005], [121.0488491210001, 14.285281915000041], [121.0488222350001, 14.285503723000033], [121.04881551300002, 14.28577258100006], [121.04875502000004, 14.286021275000053], [121.04864747700003, 14.286317019000023], [121.04860714800009, 14.286592599000073], [121.04858026300008, 14.286854736000066], [121.0484928840001, 14.287049658000058], [121.04831812600003, 14.287291630000027], [121.04814336800007, 14.287405895000063], [121.04792828100005, 14.287459667000064], [121.0476392590001, 14.287580653000077], [121.04744433700012, 14.287721803000068], [121.04737712200006, 14.287869675000024], [121.04743089400006, 14.28807131900004], [121.04754515800005, 14.288172141000075], [121.0478341810001, 14.288320013000032], [121.04796188900002, 14.288467885000045], [121.04802238200011, 14.288622478000036], [121.04808287500009, 14.288864451000052], [121.04810976100009, 14.289052651000077], [121.04806943200003, 14.289173638000022], [121.04796188900002, 14.28930134500007], [121.0478879530001, 14.289435774000026], [121.04789467400008, 14.28957020300004], [121.04802238200011, 14.28963741800004], [121.04825091100008, 14.289691190000042], [121.0483853400001, 14.289697911000076], [121.04852649100008, 14.289738240000077], [121.04858698400005, 14.289845783000032], [121.04930207500001, 14.290090411000051], [121.04956051600004, 14.290321648000031], [121.05024969400006, 14.29060276000007], [121.05031317100008, 14.290738782000062], [121.0504310560001, 14.290929213000027], [121.05171775800011, 14.291299495000032], [121.05190314100003, 14.290980224000066], [121.05348919300002, 14.290990523000062], [121.05368487500004, 14.291412784000045], [121.05418952800005, 14.291835045000028], [121.05475597500003, 14.292247006000025], [121.0548908070001, 14.28982439300006]]]]}}, {"type": "Feature", "properties": {"psgc_code": 403403026, "name": "Zapote", "corr_code": 43403026.0, "geo_level": "Bgy", "city_class": null, "inc_class": null, "urb_rur": null, "pop_2015": "U", "pop_2020": null, "status": null, "adm4_pcode": "PH0403403026", "adm4_en": "Zapote", "adm3_pcode": "PH0403403", "adm2_pcode": "PH04034", "adm1_pcode": "PH04", "adm0_pcode": "PH", "shape_len": 0.066914250793, "shape_area": 0.000141418739193, "shape_sqkm": 1.6880727564}, "geometry": {"type": "MultiPolygon", "coordinates": [[[[121.08826869200004, 14.324804143000051], [121.0882411660001, 14.324405333000072], [121.0882216550001, 14.324242740000045], [121.08815336600003, 14.323780978000059], [121.088186532, 14.32362091400006], [121.08804389400007, 14.32316447200003], [121.08791393400008, 14.322850668000058], [121.08773325900006, 14.322473468000055], [121.08738617300003, 14.321901859000036], [121.0870248220001, 14.321367229000032], [121.08629366900004, 14.320352912000033], [121.08549912100011, 14.319294219000028], [121.08543361300008, 14.319182221000062], [121.08518426, 14.318719439000063], [121.08520886200006, 14.318431525000051], [121.08527792000007, 14.318279597000071], [121.08547775800002, 14.318066661000046], [121.0861358730001, 14.318115774000034], [121.08684310000001, 14.318115774000034], [121.08701990700001, 14.31697635100005], [121.08764855400011, 14.317074577000028], [121.0885620570001, 14.317624643000045], [121.08874868600003, 14.317428191000033], [121.08900609700004, 14.315738703000022], [121.08863427100005, 14.312732985000025], [121.088784884, 14.311953725000023], [121.0892825630001, 14.310820851000074], [121.08965582200005, 14.309963010000047], [121.09023441600004, 14.309888244000035], [121.09018314000002, 14.309255835000044], [121.09045661400012, 14.308555057000035], [121.08964368700003, 14.305692780000072], [121.0873325870001, 14.306555595000077], [121.08709786100007, 14.306588697000052], [121.08512673700011, 14.306866676000027], [121.08436317300004, 14.308987686000023], [121.08277948600005, 14.308535204000066], [121.08120785500012, 14.308402062000027], [121.079256955, 14.30892181400003], [121.07892953500004, 14.308607490000043], [121.0782302560001, 14.308840647000068], [121.07780975800006, 14.308941459000039], [121.07777701600003, 14.309072427000046], [121.07778356400001, 14.309308170000065], [121.0774323710001, 14.309434726000063], [121.07739048300004, 14.309483596000064], [121.077324857, 14.309493370000041], [121.07729553500008, 14.30952129600007], [121.07729413800007, 14.309563185000059], [121.07730949800009, 14.309600884000076], [121.07729693100009, 14.309638584000027], [121.07724945700011, 14.309641377000048], [121.0772005870001, 14.309639981000032], [121.07716568, 14.309666510000056], [121.077153113, 14.309719569000038], [121.07712518700009, 14.309753080000064], [121.07707352400007, 14.309779610000078], [121.07703303200003, 14.30980334700007], [121.07701069100005, 14.309856406000051], [121.07701348400008, 14.309903880000036], [121.07705397600012, 14.309929013000044], [121.07709726100006, 14.309956939000074], [121.07708469500005, 14.309987657000022], [121.07706654300011, 14.310060265000061], [121.07708190200003, 14.31013426800007], [121.07713496100007, 14.310233405000076], [121.07712379100008, 14.31029344500007], [121.07714473500005, 14.310324164000065], [121.07716149100008, 14.310405149000076], [121.0771740570001, 14.310516852000035], [121.07711680900002, 14.310558741000023], [121.07706933500003, 14.310631348000072], [121.07702884300011, 14.310615989000041], [121.07697299100005, 14.31058387400003], [121.07690178000007, 14.310548967000045], [121.07685151400005, 14.310548967000045], [121.07680404000007, 14.310599234000051], [121.07678030300008, 14.310695578000036], [121.07678309500011, 14.310737466000035], [121.07679985100003, 14.31078354400006], [121.07683615500002, 14.310846377000075], [121.07689898800004, 14.310939929000028], [121.07691853600011, 14.310980421000068], [121.07690178000007, 14.311048840000069], [121.0768920060001, 14.31111446500006], [121.07687245800003, 14.311196847000076], [121.07683615500002, 14.311304361000055], [121.07680822900011, 14.31142863100007], [121.07679287000008, 14.311522183000022], [121.07680264400005, 14.311562675000062], [121.07683475800002, 14.31163667900006], [121.076883629, 14.311679964000064], [121.07692272500003, 14.311700908000034], [121.07699952100006, 14.311699512000075], [121.07707073200004, 14.31169811600006], [121.07714333900003, 14.311677171000042], [121.07723968300002, 14.311652038000034], [121.07733323500008, 14.311654831000055], [121.07737093500009, 14.311681360000023], [121.0773723310001, 14.311745590000044], [121.07736534900005, 14.311858689000076], [121.07740025700002, 14.31192291900004], [121.07746029700002, 14.311994130000073], [121.07748961900006, 14.312044396000033], [121.07752173400002, 14.31212677700006], [121.07754826400003, 14.312209159000076], [121.07755943400002, 14.312299918000065], [121.07761070900006, 14.312433651000049], [121.0776504260001, 14.312491365000028], [121.07767711000008, 14.312540390000038], [121.0777366860001, 14.312611136000044], [121.07779998400008, 14.312675675000037], [121.07791727300003, 14.31275945300007], [121.07797002200004, 14.312791723000032], [121.0780165650001, 14.312802893000026], [121.07806062500003, 14.312851918000035], [121.07808172500006, 14.312902806000068], [121.07810841000003, 14.312948108000057], [121.07810903000006, 14.313001477000057], [121.07814068000005, 14.313076566000063], [121.07817135900007, 14.313120472000037], [121.07817135900007, 14.313177022000048], [121.07813365900006, 14.313231477000045], [121.0780771090001, 14.313250327000048], [121.07796191500006, 14.313271272000065], [121.07788651600004, 14.31332782100003], [121.07785509900009, 14.313440921000051], [121.07781739900008, 14.31353936000005], [121.07776503800005, 14.313662932000057], [121.0777461880001, 14.313696443000026], [121.07772524400002, 14.313786504000063], [121.07775049300005, 14.31389076000005], [121.07779424400007, 14.313940096000067], [121.07788546800009, 14.313950335000072], [121.07794876700007, 14.313934510000024], [121.0780223050001, 14.313907516000029], [121.07807536400003, 14.313924271000076], [121.07809118900002, 14.314001533000067], [121.07808094900008, 14.31408717200003], [121.07808746500007, 14.314160710000067], [121.07817310500002, 14.314183051000043], [121.07826153600001, 14.314172811000049], [121.07832762800001, 14.314143023000042], [121.07840116600005, 14.314083448000076], [121.07846911900003, 14.314047145000075], [121.07853427900011, 14.314039698000045], [121.07858733800003, 14.314062039000078], [121.07863388100009, 14.314190497000027], [121.07859943900007, 14.314251934000026], [121.07857616800004, 14.314319887000067], [121.07860316300003, 14.314360845000067], [121.07864039700007, 14.314358053000035], [121.07870741900001, 14.314337574000035], [121.07876699400003, 14.314341297000055], [121.0788116760001, 14.31436829200004], [121.07882656900006, 14.314426936000075], [121.07882005300007, 14.314473479000071], [121.07879212700004, 14.314525608000054], [121.07875954700012, 14.314595422000025], [121.07876234000003, 14.314649412000051], [121.07879305800009, 14.314703402000077], [121.07875768600002, 14.314761116000057], [121.07868228600012, 14.314794627000026], [121.0786022320001, 14.314849547000051], [121.07855382700006, 14.314922155000033], [121.07856313600007, 14.315026411000076], [121.07862364200003, 14.31507388500006], [121.07874372300012, 14.315141838000045], [121.07886008000003, 14.315204206000033], [121.07897923100006, 14.315269366000052], [121.07908348700005, 14.315310324000052], [121.0790937270001, 14.315344766000067], [121.0790481140001, 14.31539689400006], [121.0789820230001, 14.315431336000074], [121.07888055900003, 14.31549835800007], [121.07881633000011, 14.315579343000024], [121.07877351000002, 14.315730142000064], [121.07882936200008, 14.315839053000047], [121.07891965600004, 14.315847431000066], [121.07902018900006, 14.315842777000057], [121.07911141300008, 14.31580088800007], [121.07921380800008, 14.315806473000066], [121.07929106900008, 14.315852085000074], [121.07934785200007, 14.315920969000047], [121.07937857000002, 14.316068976000054], [121.07942883700002, 14.31615275400003], [121.07963455700008, 14.316186265000056], [121.07968668500007, 14.316262595000069], [121.0796531740001, 14.316466454000022], [121.07965689800005, 14.31651579000004], [121.07970902600005, 14.316550231000065], [121.07976022300011, 14.316537199000038], [121.07980635900003, 14.316521608000073], [121.07994459200006, 14.31655302400003], [121.079963442, 14.316681832000029], [121.07993516700003, 14.316832632000057], [121.08004512500008, 14.317065114000059], [121.0800042840001, 14.317209631000026], [121.0800168500001, 14.317288172000076], [121.08012680800005, 14.31735728800004], [121.08020220800006, 14.317322730000058], [121.08033415800003, 14.317222197000035], [121.08044725800005, 14.317159364000076], [121.08056035700008, 14.31716878900005], [121.08055407400002, 14.317244189000064], [121.08046924900009, 14.317416980000075], [121.08056978200011, 14.317523796000046], [121.0807519980001, 14.317517513000041], [121.08079912300002, 14.317564638000022], [121.08076770700006, 14.317680879000022], [121.0806357570001, 14.31778455400007], [121.08058549000009, 14.317881945000067], [121.08065460700004, 14.317947920000051], [121.08075514000006, 14.317982478000033], [121.08085567300009, 14.318067303000078], [121.08086195600004, 14.318133278000062], [121.08069544800003, 14.318466294000075], [121.08101275600006, 14.318774176000034], [121.08101589800003, 14.318865284000026], [121.08088709000003, 14.318987809000078], [121.08089023100001, 14.319066350000071], [121.08124209700009, 14.319352241000047], [121.08101589800003, 14.319565874000034], [121.08114784700001, 14.319754373000023], [121.08110700600002, 14.320002564000049], [121.08119183000008, 14.320200489000058], [121.08126408900011, 14.32024447200007], [121.08125152200012, 14.320439255000053], [121.08115413100006, 14.320737712000039], [121.08144944600008, 14.320998470000063], [121.08147772100006, 14.321315777000052], [121.08145721900007, 14.32217578500007], [121.08171424400007, 14.322355866000066], [121.08234434600001, 14.322211801000037], [121.0842395090001, 14.323066037000046], [121.08509329200001, 14.32421067000007], [121.08664136100003, 14.324351403000037], [121.08767340600002, 14.324745457000063], [121.08827043300005, 14.325091474000033], [121.08826869200004, 14.324804143000051]]]]}}]}